{
  "type": "FeatureCollection",
  "metadata": {
    "title": "AedesGuard Guayaquil Pilot Dataset",
    "total_foci": 40,
    "generated_at": "2026-09-02T13:05:21.498428Z",
    "bounding_box": {
      "min_lat": -2.28,
      "max_lat": -2.09,
      "min_lng": -79.95,
      "max_lng": -79.83
    }
  },
  "features": [
    {
      "type": "Feature",
      "geometry": {
        "type": "Point",
        "coordinates": [
          -79.846868,
          -2.16299
        ]
      },
      "properties": {
        "id": "foco-013",
        "sector": "Durán (Zona Centro)",
        "container_type": "open_tank",
        "container_name": "Tanque / Cisterna sin tapa",
        "estimated_volume_l": 200,
        "water_detected": true,
        "temperature_c": 26.8,
        "humidity_pct": 81.5,
        "ire_score": 62.4,
        "risk_level": "MEDIUM",
        "days_to_emergence": 8,
        "status": "PENDING",
        "reported_at": "2026-09-01T20:05:21.498428Z",
        "recommended_action": "Eliminación física del depósito"
      }
    },
    {
      "type": "Feature",
      "geometry": {
        "type": "Point",
        "coordinates": [
          -79.933131,
          -2.145898
        ]
      },
      "properties": {
        "id": "foco-035",
        "sector": "Mapasingue",
        "container_type": "tire",
        "container_name": "Llanta en desuso",
        "estimated_volume_l": 15,
        "water_detected": true,
        "temperature_c": 27.3,
        "humidity_pct": 89.2,
        "ire_score": 62.3,
        "risk_level": "MEDIUM",
        "days_to_emergence": 8,
        "status": "PENDING",
        "reported_at": "2026-08-31T19:05:21.498428Z",
        "recommended_action": "Eliminación física del depósito"
      }
    },
    {
      "type": "Feature",
      "geometry": {
        "type": "Point",
        "coordinates": [
          -79.850399,
          -2.1814
        ]
      },
      "properties": {
        "id": "foco-001",
        "sector": "Durán (Zona Centro)",
        "container_type": "tire",
        "container_name": "Llanta en desuso",
        "estimated_volume_l": 15,
        "water_detected": true,
        "temperature_c": 27.6,
        "humidity_pct": 87.5,
        "ire_score": 61.8,
        "risk_level": "MEDIUM",
        "days_to_emergence": 8,
        "status": "PENDING",
        "reported_at": "2026-09-02T07:05:21.498428Z",
        "recommended_action": "Eliminación física del depósito"
      }
    },
    {
      "type": "Feature",
      "geometry": {
        "type": "Point",
        "coordinates": [
          -79.846219,
          -2.171932
        ]
      },
      "properties": {
        "id": "foco-003",
        "sector": "Durán (Zona Centro)",
        "container_type": "clogged_drain",
        "container_name": "Canaleta obstruida",
        "estimated_volume_l": 10,
        "water_detected": true,
        "temperature_c": 27.9,
        "humidity_pct": 89.8,
        "ire_score": 60.7,
        "risk_level": "MEDIUM",
        "days_to_emergence": 6,
        "status": "PENDING",
        "reported_at": "2026-08-31T16:05:21.498428Z",
        "recommended_action": "Eliminación física del depósito"
      }
    },
    {
      "type": "Feature",
      "geometry": {
        "type": "Point",
        "coordinates": [
          -79.930077,
          -2.193941
        ]
      },
      "properties": {
        "id": "foco-031",
        "sector": "Suburbio Oeste",
        "container_type": "tire",
        "container_name": "Llanta en desuso",
        "estimated_volume_l": 15,
        "water_detected": true,
        "temperature_c": 27.4,
        "humidity_pct": 85.1,
        "ire_score": 59.5,
        "risk_level": "MEDIUM",
        "days_to_emergence": 6,
        "status": "PENDING",
        "reported_at": "2026-09-01T11:05:21.498428Z",
        "recommended_action": "Eliminación física del depósito"
      }
    },
    {
      "type": "Feature",
      "geometry": {
        "type": "Point",
        "coordinates": [
          -79.93446,
          -2.150927
        ]
      },
      "properties": {
        "id": "foco-033",
        "sector": "Mapasingue",
        "container_type": "open_tank",
        "container_name": "Tanque / Cisterna sin tapa",
        "estimated_volume_l": 200,
        "water_detected": true,
        "temperature_c": 27.8,
        "humidity_pct": 77.2,
        "ire_score": 58.8,
        "risk_level": "MEDIUM",
        "days_to_emergence": 7,
        "status": "PENDING",
        "reported_at": "2026-09-01T16:05:21.498428Z",
        "recommended_action": "Eliminación física del depósito"
      }
    },
    {
      "type": "Feature",
      "geometry": {
        "type": "Point",
        "coordinates": [
          -79.898497,
          -2.251184
        ]
      },
      "properties": {
        "id": "foco-024",
        "sector": "Guasmo Sur",
        "container_type": "tire",
        "container_name": "Llanta en desuso",
        "estimated_volume_l": 15,
        "water_detected": true,
        "temperature_c": 28.6,
        "humidity_pct": 89.7,
        "ire_score": 56.4,
        "risk_level": "MEDIUM",
        "days_to_emergence": 8,
        "status": "PENDING",
        "reported_at": "2026-08-31T19:05:21.498428Z",
        "recommended_action": "Eliminación física del depósito"
      }
    },
    {
      "type": "Feature",
      "geometry": {
        "type": "Point",
        "coordinates": [
          -79.941005,
          -2.110315
        ]
      },
      "properties": {
        "id": "foco-026",
        "sector": "Bastión Popular / Pascuales",
        "container_type": "open_tank",
        "container_name": "Tanque / Cisterna sin tapa",
        "estimated_volume_l": 200,
        "water_detected": true,
        "temperature_c": 31.1,
        "humidity_pct": 82.5,
        "ire_score": 55.9,
        "risk_level": "MEDIUM",
        "days_to_emergence": 8,
        "status": "PENDING",
        "reported_at": "2026-09-02T06:05:21.498428Z",
        "recommended_action": "Eliminación física del depósito"
      }
    },
    {
      "type": "Feature",
      "geometry": {
        "type": "Point",
        "coordinates": [
          -79.935713,
          -2.151709
        ]
      },
      "properties": {
        "id": "foco-039",
        "sector": "Mapasingue",
        "container_type": "open_tank",
        "container_name": "Tanque / Cisterna sin tapa",
        "estimated_volume_l": 200,
        "water_detected": true,
        "temperature_c": 30.2,
        "humidity_pct": 84.4,
        "ire_score": 55.6,
        "risk_level": "MEDIUM",
        "days_to_emergence": 6,
        "status": "PENDING",
        "reported_at": "2026-09-02T05:05:21.498428Z",
        "recommended_action": "Eliminación física del depósito"
      }
    },
    {
      "type": "Feature",
      "geometry": {
        "type": "Point",
        "coordinates": [
          -79.904251,
          -2.130673
        ]
      },
      "properties": {
        "id": "foco-014",
        "sector": "Samanes / Sauces",
        "container_type": "tire",
        "container_name": "Llanta en desuso",
        "estimated_volume_l": 15,
        "water_detected": true,
        "temperature_c": 30.9,
        "humidity_pct": 87.8,
        "ire_score": 55.2,
        "risk_level": "MEDIUM",
        "days_to_emergence": 7,
        "status": "PENDING",
        "reported_at": "2026-09-02T05:05:21.498428Z",
        "recommended_action": "Eliminación física del depósito"
      }
    },
    {
      "type": "Feature",
      "geometry": {
        "type": "Point",
        "coordinates": [
          -79.884273,
          -2.245928
        ]
      },
      "properties": {
        "id": "foco-018",
        "sector": "Guasmo Sur",
        "container_type": "open_tank",
        "container_name": "Tanque / Cisterna sin tapa",
        "estimated_volume_l": 200,
        "water_detected": true,
        "temperature_c": 26.9,
        "humidity_pct": 83.3,
        "ire_score": 54.7,
        "risk_level": "MEDIUM",
        "days_to_emergence": 8,
        "status": "PENDING",
        "reported_at": "2026-09-02T04:05:21.498428Z",
        "recommended_action": "Eliminación física del depósito"
      }
    },
    {
      "type": "Feature",
      "geometry": {
        "type": "Point",
        "coordinates": [
          -79.909548,
          -2.213825
        ]
      },
      "properties": {
        "id": "foco-023",
        "sector": "Suburbio Oeste",
        "container_type": "clogged_drain",
        "container_name": "Canaleta obstruida",
        "estimated_volume_l": 10,
        "water_detected": true,
        "temperature_c": 29.4,
        "humidity_pct": 83.0,
        "ire_score": 53.0,
        "risk_level": "MEDIUM",
        "days_to_emergence": 7,
        "status": "PENDING",
        "reported_at": "2026-09-02T00:05:21.498428Z",
        "recommended_action": "Eliminación física del depósito"
      }
    },
    {
      "type": "Feature",
      "geometry": {
        "type": "Point",
        "coordinates": [
          -79.906533,
          -2.25922
        ]
      },
      "properties": {
        "id": "foco-017",
        "sector": "Guasmo Sur",
        "container_type": "clogged_drain",
        "container_name": "Canaleta obstruida",
        "estimated_volume_l": 10,
        "water_detected": true,
        "temperature_c": 31.1,
        "humidity_pct": 89.9,
        "ire_score": 52.7,
        "risk_level": "MEDIUM",
        "days_to_emergence": 7,
        "status": "PENDING",
        "reported_at": "2026-09-01T21:05:21.498428Z",
        "recommended_action": "Eliminación física del depósito"
      }
    },
    {
      "type": "Feature",
      "geometry": {
        "type": "Point",
        "coordinates": [
          -79.898886,
          -2.261607
        ]
      },
      "properties": {
        "id": "foco-021",
        "sector": "Guasmo Sur",
        "container_type": "open_tank",
        "container_name": "Tanque / Cisterna sin tapa",
        "estimated_volume_l": 200,
        "water_detected": true,
        "temperature_c": 29.4,
        "humidity_pct": 78.9,
        "ire_score": 52.2,
        "risk_level": "MEDIUM",
        "days_to_emergence": 6,
        "status": "PENDING",
        "reported_at": "2026-08-31T15:05:21.498428Z",
        "recommended_action": "Eliminación física del depósito"
      }
    },
    {
      "type": "Feature",
      "geometry": {
        "type": "Point",
        "coordinates": [
          -79.889486,
          -2.127629
        ]
      },
      "properties": {
        "id": "foco-005",
        "sector": "Samanes / Sauces",
        "container_type": "bucket",
        "container_name": "Balde con agua recolectada",
        "estimated_volume_l": 20,
        "water_detected": true,
        "temperature_c": 29.2,
        "humidity_pct": 91.5,
        "ire_score": 50.4,
        "risk_level": "MEDIUM",
        "days_to_emergence": 8,
        "status": "PENDING",
        "reported_at": "2026-09-01T18:05:21.498428Z",
        "recommended_action": "Eliminación física del depósito"
      }
    },
    {
      "type": "Feature",
      "geometry": {
        "type": "Point",
        "coordinates": [
          -79.848321,
          -2.160749
        ]
      },
      "properties": {
        "id": "foco-006",
        "sector": "Durán (Zona Centro)",
        "container_type": "clogged_drain",
        "container_name": "Canaleta obstruida",
        "estimated_volume_l": 10,
        "water_detected": true,
        "temperature_c": 27.5,
        "humidity_pct": 76.2,
        "ire_score": 49.9,
        "risk_level": "MEDIUM",
        "days_to_emergence": 7,
        "status": "PENDING",
        "reported_at": "2026-09-02T07:05:21.498428Z",
        "recommended_action": "Eliminación física del depósito"
      }
    },
    {
      "type": "Feature",
      "geometry": {
        "type": "Point",
        "coordinates": [
          -79.892732,
          -2.261091
        ]
      },
      "properties": {
        "id": "foco-032",
        "sector": "Guasmo Sur",
        "container_type": "clogged_drain",
        "container_name": "Canaleta obstruida",
        "estimated_volume_l": 10,
        "water_detected": true,
        "temperature_c": 29.6,
        "humidity_pct": 82.1,
        "ire_score": 49.9,
        "risk_level": "MEDIUM",
        "days_to_emergence": 8,
        "status": "PENDING",
        "reported_at": "2026-09-01T16:05:21.498428Z",
        "recommended_action": "Eliminación física del depósito"
      }
    },
    {
      "type": "Feature",
      "geometry": {
        "type": "Point",
        "coordinates": [
          -79.89369,
          -2.130971
        ]
      },
      "properties": {
        "id": "foco-036",
        "sector": "Samanes / Sauces",
        "container_type": "tire",
        "container_name": "Llanta en desuso",
        "estimated_volume_l": 15,
        "water_detected": true,
        "temperature_c": 31.2,
        "humidity_pct": 76.8,
        "ire_score": 48.9,
        "risk_level": "MEDIUM",
        "days_to_emergence": 7,
        "status": "PENDING",
        "reported_at": "2026-09-02T05:05:21.498428Z",
        "recommended_action": "Eliminación física del depósito"
      }
    },
    {
      "type": "Feature",
      "geometry": {
        "type": "Point",
        "coordinates": [
          -79.918987,
          -2.2031
        ]
      },
      "properties": {
        "id": "foco-030",
        "sector": "Suburbio Oeste",
        "container_type": "tire",
        "container_name": "Llanta en desuso",
        "estimated_volume_l": 15,
        "water_detected": true,
        "temperature_c": 30.2,
        "humidity_pct": 76.0,
        "ire_score": 48.2,
        "risk_level": "MEDIUM",
        "days_to_emergence": 8,
        "status": "PENDING",
        "reported_at": "2026-09-01T03:05:21.498428Z",
        "recommended_action": "Eliminación física del depósito"
      }
    },
    {
      "type": "Feature",
      "geometry": {
        "type": "Point",
        "coordinates": [
          -79.925085,
          -2.115411
        ]
      },
      "properties": {
        "id": "foco-010",
        "sector": "Bastión Popular / Pascuales",
        "container_type": "bucket",
        "container_name": "Balde con agua recolectada",
        "estimated_volume_l": 20,
        "water_detected": true,
        "temperature_c": 29.3,
        "humidity_pct": 87.2,
        "ire_score": 46.0,
        "risk_level": "MEDIUM",
        "days_to_emergence": 7,
        "status": "PENDING",
        "reported_at": "2026-09-01T11:05:21.498428Z",
        "recommended_action": "Eliminación física del depósito"
      }
    },
    {
      "type": "Feature",
      "geometry": {
        "type": "Point",
        "coordinates": [
          -79.921118,
          -2.207877
        ]
      },
      "properties": {
        "id": "foco-007",
        "sector": "Suburbio Oeste",
        "container_type": "tire",
        "container_name": "Llanta en desuso",
        "estimated_volume_l": 15,
        "water_detected": true,
        "temperature_c": 30.7,
        "humidity_pct": 77.8,
        "ire_score": 45.7,
        "risk_level": "MEDIUM",
        "days_to_emergence": 8,
        "status": "PENDING",
        "reported_at": "2026-09-01T19:05:21.498428Z",
        "recommended_action": "Eliminación física del depósito"
      }
    },
    {
      "type": "Feature",
      "geometry": {
        "type": "Point",
        "coordinates": [
          -79.898857,
          -2.257337
        ]
      },
      "properties": {
        "id": "foco-025",
        "sector": "Guasmo Sur",
        "container_type": "tire",
        "container_name": "Llanta en desuso",
        "estimated_volume_l": 15,
        "water_detected": true,
        "temperature_c": 30.8,
        "humidity_pct": 79.2,
        "ire_score": 44.6,
        "risk_level": "MEDIUM",
        "days_to_emergence": 7,
        "status": "PENDING",
        "reported_at": "2026-09-02T04:05:21.498428Z",
        "recommended_action": "Eliminación física del depósito"
      }
    },
    {
      "type": "Feature",
      "geometry": {
        "type": "Point",
        "coordinates": [
          -79.83527,
          -2.176505
        ]
      },
      "properties": {
        "id": "foco-022",
        "sector": "Durán (Zona Centro)",
        "container_type": "tire",
        "container_name": "Llanta en desuso",
        "estimated_volume_l": 15,
        "water_detected": true,
        "temperature_c": 30.8,
        "humidity_pct": 76.2,
        "ire_score": 43.3,
        "risk_level": "MEDIUM",
        "days_to_emergence": 8,
        "status": "PENDING",
        "reported_at": "2026-09-01T05:05:21.498428Z",
        "recommended_action": "Eliminación física del depósito"
      }
    },
    {
      "type": "Feature",
      "geometry": {
        "type": "Point",
        "coordinates": [
          -79.883037,
          -2.256001
        ]
      },
      "properties": {
        "id": "foco-034",
        "sector": "Guasmo Sur",
        "container_type": "tire",
        "container_name": "Llanta en desuso",
        "estimated_volume_l": 15,
        "water_detected": true,
        "temperature_c": 31.5,
        "humidity_pct": 76.2,
        "ire_score": 41.1,
        "risk_level": "MEDIUM",
        "days_to_emergence": 7,
        "status": "PENDING",
        "reported_at": "2026-09-02T04:05:21.498428Z",
        "recommended_action": "Eliminación física del depósito"
      }
    },
    {
      "type": "Feature",
      "geometry": {
        "type": "Point",
        "coordinates": [
          -79.941832,
          -2.110331
        ]
      },
      "properties": {
        "id": "foco-004",
        "sector": "Bastión Popular / Pascuales",
        "container_type": "bucket",
        "container_name": "Balde con agua recolectada",
        "estimated_volume_l": 20,
        "water_detected": true,
        "temperature_c": 30.3,
        "humidity_pct": 76.7,
        "ire_score": 39.5,
        "risk_level": "LOW",
        "days_to_emergence": 11,
        "status": "PENDING",
        "reported_at": "2026-09-01T14:05:21.498428Z",
        "recommended_action": "Monitoreo preventivo y volteo de recipiente"
      }
    },
    {
      "type": "Feature",
      "geometry": {
        "type": "Point",
        "coordinates": [
          -79.923059,
          -2.111736
        ]
      },
      "properties": {
        "id": "foco-012",
        "sector": "Bastión Popular / Pascuales",
        "container_type": "bucket",
        "container_name": "Balde con agua recolectada",
        "estimated_volume_l": 20,
        "water_detected": true,
        "temperature_c": 29.0,
        "humidity_pct": 76.5,
        "ire_score": 39.1,
        "risk_level": "LOW",
        "days_to_emergence": 9,
        "status": "PENDING",
        "reported_at": "2026-09-02T03:05:21.498428Z",
        "recommended_action": "Monitoreo preventivo y volteo de recipiente"
      }
    },
    {
      "type": "Feature",
      "geometry": {
        "type": "Point",
        "coordinates": [
          -79.941922,
          -2.163204
        ]
      },
      "properties": {
        "id": "foco-015",
        "sector": "Mapasingue",
        "container_type": "flowerpot",
        "container_name": "Maceta / Plato con agua",
        "estimated_volume_l": 2,
        "water_detected": true,
        "temperature_c": 30.1,
        "humidity_pct": 87.2,
        "ire_score": 35.9,
        "risk_level": "LOW",
        "days_to_emergence": 10,
        "status": "PENDING",
        "reported_at": "2026-09-01T04:05:21.498428Z",
        "recommended_action": "Monitoreo preventivo y volteo de recipiente"
      }
    },
    {
      "type": "Feature",
      "geometry": {
        "type": "Point",
        "coordinates": [
          -79.885204,
          -2.140973
        ]
      },
      "properties": {
        "id": "foco-038",
        "sector": "Samanes / Sauces",
        "container_type": "flowerpot",
        "container_name": "Maceta / Plato con agua",
        "estimated_volume_l": 2,
        "water_detected": true,
        "temperature_c": 26.8,
        "humidity_pct": 85.8,
        "ire_score": 35.6,
        "risk_level": "LOW",
        "days_to_emergence": 9,
        "status": "PENDING",
        "reported_at": "2026-09-02T12:05:21.498428Z",
        "recommended_action": "Monitoreo preventivo y volteo de recipiente"
      }
    },
    {
      "type": "Feature",
      "geometry": {
        "type": "Point",
        "coordinates": [
          -79.937375,
          -2.11187
        ]
      },
      "properties": {
        "id": "foco-028",
        "sector": "Bastión Popular / Pascuales",
        "container_type": "flowerpot",
        "container_name": "Maceta / Plato con agua",
        "estimated_volume_l": 2,
        "water_detected": true,
        "temperature_c": 26.8,
        "humidity_pct": 81.4,
        "ire_score": 35.5,
        "risk_level": "LOW",
        "days_to_emergence": 11,
        "status": "PENDING",
        "reported_at": "2026-09-01T07:05:21.498428Z",
        "recommended_action": "Monitoreo preventivo y volteo de recipiente"
      }
    },
    {
      "type": "Feature",
      "geometry": {
        "type": "Point",
        "coordinates": [
          -79.904751,
          -2.146237
        ]
      },
      "properties": {
        "id": "foco-002",
        "sector": "Samanes / Sauces",
        "container_type": "flowerpot",
        "container_name": "Maceta / Plato con agua",
        "estimated_volume_l": 2,
        "water_detected": true,
        "temperature_c": 27.7,
        "humidity_pct": 85.2,
        "ire_score": 34.2,
        "risk_level": "LOW",
        "days_to_emergence": 14,
        "status": "PENDING",
        "reported_at": "2026-08-31T19:05:21.498428Z",
        "recommended_action": "Monitoreo preventivo y volteo de recipiente"
      }
    },
    {
      "type": "Feature",
      "geometry": {
        "type": "Point",
        "coordinates": [
          -79.853649,
          -2.178571
        ]
      },
      "properties": {
        "id": "foco-011",
        "sector": "Durán (Zona Centro)",
        "container_type": "flowerpot",
        "container_name": "Maceta / Plato con agua",
        "estimated_volume_l": 2,
        "water_detected": true,
        "temperature_c": 30.2,
        "humidity_pct": 84.2,
        "ire_score": 32.4,
        "risk_level": "LOW",
        "days_to_emergence": 12,
        "status": "PENDING",
        "reported_at": "2026-08-31T23:05:21.498428Z",
        "recommended_action": "Monitoreo preventivo y volteo de recipiente"
      }
    },
    {
      "type": "Feature",
      "geometry": {
        "type": "Point",
        "coordinates": [
          -79.918805,
          -2.205593
        ]
      },
      "properties": {
        "id": "foco-019",
        "sector": "Suburbio Oeste",
        "container_type": "litter_plastic",
        "container_name": "Basura / Botellas plásticas",
        "estimated_volume_l": 1,
        "water_detected": true,
        "temperature_c": 27.8,
        "humidity_pct": 89.8,
        "ire_score": 30.3,
        "risk_level": "LOW",
        "days_to_emergence": 10,
        "status": "PENDING",
        "reported_at": "2026-09-01T02:05:21.498428Z",
        "recommended_action": "Monitoreo preventivo y volteo de recipiente"
      }
    },
    {
      "type": "Feature",
      "geometry": {
        "type": "Point",
        "coordinates": [
          -79.924468,
          -2.150282
        ]
      },
      "properties": {
        "id": "foco-029",
        "sector": "Mapasingue",
        "container_type": "flowerpot",
        "container_name": "Maceta / Plato con agua",
        "estimated_volume_l": 2,
        "water_detected": true,
        "temperature_c": 30.4,
        "humidity_pct": 86.3,
        "ire_score": 30.2,
        "risk_level": "LOW",
        "days_to_emergence": 10,
        "status": "PENDING",
        "reported_at": "2026-09-01T18:05:21.498428Z",
        "recommended_action": "Monitoreo preventivo y volteo de recipiente"
      }
    },
    {
      "type": "Feature",
      "geometry": {
        "type": "Point",
        "coordinates": [
          -79.886935,
          -2.243017
        ]
      },
      "properties": {
        "id": "foco-027",
        "sector": "Guasmo Sur",
        "container_type": "litter_plastic",
        "container_name": "Basura / Botellas plásticas",
        "estimated_volume_l": 1,
        "water_detected": true,
        "temperature_c": 31.3,
        "humidity_pct": 90.7,
        "ire_score": 30.0,
        "risk_level": "LOW",
        "days_to_emergence": 10,
        "status": "PENDING",
        "reported_at": "2026-09-01T10:05:21.498428Z",
        "recommended_action": "Monitoreo preventivo y volteo de recipiente"
      }
    },
    {
      "type": "Feature",
      "geometry": {
        "type": "Point",
        "coordinates": [
          -79.891665,
          -2.259837
        ]
      },
      "properties": {
        "id": "foco-016",
        "sector": "Guasmo Sur",
        "container_type": "litter_plastic",
        "container_name": "Basura / Botellas plásticas",
        "estimated_volume_l": 1,
        "water_detected": true,
        "temperature_c": 29.5,
        "humidity_pct": 77.6,
        "ire_score": 27.7,
        "risk_level": "LOW",
        "days_to_emergence": 13,
        "status": "PENDING",
        "reported_at": "2026-09-01T03:05:21.498428Z",
        "recommended_action": "Monitoreo preventivo y volteo de recipiente"
      }
    },
    {
      "type": "Feature",
      "geometry": {
        "type": "Point",
        "coordinates": [
          -79.842381,
          -2.166447
        ]
      },
      "properties": {
        "id": "foco-008",
        "sector": "Durán (Zona Centro)",
        "container_type": "litter_plastic",
        "container_name": "Basura / Botellas plásticas",
        "estimated_volume_l": 1,
        "water_detected": true,
        "temperature_c": 27.4,
        "humidity_pct": 87.4,
        "ire_score": 26.3,
        "risk_level": "LOW",
        "days_to_emergence": 12,
        "status": "PENDING",
        "reported_at": "2026-09-01T19:05:21.498428Z",
        "recommended_action": "Monitoreo preventivo y volteo de recipiente"
      }
    },
    {
      "type": "Feature",
      "geometry": {
        "type": "Point",
        "coordinates": [
          -79.900464,
          -2.253723
        ]
      },
      "properties": {
        "id": "foco-037",
        "sector": "Guasmo Sur",
        "container_type": "litter_plastic",
        "container_name": "Basura / Botellas plásticas",
        "estimated_volume_l": 1,
        "water_detected": true,
        "temperature_c": 29.5,
        "humidity_pct": 87.2,
        "ire_score": 25.3,
        "risk_level": "LOW",
        "days_to_emergence": 14,
        "status": "PENDING",
        "reported_at": "2026-09-01T20:05:21.498428Z",
        "recommended_action": "Monitoreo preventivo y volteo de recipiente"
      }
    },
    {
      "type": "Feature",
      "geometry": {
        "type": "Point",
        "coordinates": [
          -79.849519,
          -2.177172
        ]
      },
      "properties": {
        "id": "foco-020",
        "sector": "Durán (Zona Centro)",
        "container_type": "litter_plastic",
        "container_name": "Basura / Botellas plásticas",
        "estimated_volume_l": 1,
        "water_detected": true,
        "temperature_c": 31.5,
        "humidity_pct": 86.0,
        "ire_score": 24.2,
        "risk_level": "LOW",
        "days_to_emergence": 13,
        "status": "PENDING",
        "reported_at": "2026-09-01T08:05:21.498428Z",
        "recommended_action": "Monitoreo preventivo y volteo de recipiente"
      }
    },
    {
      "type": "Feature",
      "geometry": {
        "type": "Point",
        "coordinates": [
          -79.840569,
          -2.168633
        ]
      },
      "properties": {
        "id": "foco-009",
        "sector": "Durán (Zona Centro)",
        "container_type": "litter_plastic",
        "container_name": "Basura / Botellas plásticas",
        "estimated_volume_l": 1,
        "water_detected": true,
        "temperature_c": 30.7,
        "humidity_pct": 88.2,
        "ire_score": 24.0,
        "risk_level": "LOW",
        "days_to_emergence": 9,
        "status": "PENDING",
        "reported_at": "2026-09-01T16:05:21.498428Z",
        "recommended_action": "Monitoreo preventivo y volteo de recipiente"
      }
    },
    {
      "type": "Feature",
      "geometry": {
        "type": "Point",
        "coordinates": [
          -79.893906,
          -2.245306
        ]
      },
      "properties": {
        "id": "foco-040",
        "sector": "Guasmo Sur",
        "container_type": "litter_plastic",
        "container_name": "Basura / Botellas plásticas",
        "estimated_volume_l": 1,
        "water_detected": true,
        "temperature_c": 30.7,
        "humidity_pct": 84.9,
        "ire_score": 22.2,
        "risk_level": "LOW",
        "days_to_emergence": 10,
        "status": "PENDING",
        "reported_at": "2026-09-02T10:05:21.498428Z",
        "recommended_action": "Monitoreo preventivo y volteo de recipiente"
      }
    }
  ]
}