{"type":"FeatureCollection","metadata":{"title":"Ojito al Mosquito — Cuerpos de agua reales (Rio Guayas + red Estero Salado)","source":"OpenStreetMap via Overpass API","note":"Rio Guayas: poligono real (relation 1207999). Estero Salado: corredor con buffer sobre centerlines reales de sus brazos/canales (no hay poligono de area unico en OSM para el estuario completo)."},"features":[{"type":"Feature","properties":{"water_body":"rio_guayas","ring_index":0,"source":"osm_relation_1207999"},"geometry":{"type":"Polygon","coordinates":[[[-79.824304,-2.339493],[-79.824492,-2.339539],[-79.824529,-2.340019],[-79.824577,-2.340185],[-79.824529,-2.340559],[-79.824465,-2.340895],[-79.82462,-2.34113],[-79.82488,-2.34475],[-79.825099,-2.346633],[-79.836952,-2.346444],[-79.851128,-2.346218],[-79.851116,-2.3455],[-79.851122,-2.345098],[-79.851036,-2.344506],[-79.850779,-2.343131],[-79.850398,-2.341686],[-79.850022,-2.339738],[-79.850038,-2.339668],[-79.850129,-2.339234],[-79.849974,-2.33888],[-79.850103,-2.338542],[-79.849723,-2.336005],[-79.84963,-2.335227],[-79.849511,-2.333937],[-79.849286,-2.333168],[-79.848896,-2.331896],[-79.848407,-2.329543],[-79.84823,-2.329388],[-79.848134,-2.329259],[-79.848118,-2.329031],[-79.848198,-2.328884],[-79.847709,-2.326509],[-79.847771,-2.326004],[-79.847648,-2.325592],[-79.847279,-2.324314],[-79.847251,-2.323702],[-79.847249,-2.322416],[-79.846951,-2.317143],[-79.846795,-2.316405],[-79.847056,-2.310858],[-79.847736,-2.308169],[-79.848467,-2.302553],[-79.848918,-2.300959],[-79.849535,-2.299041],[-79.850775,-2.292665],[-79.8508,-2.29193],[-79.851387,-2.289126],[-79.851908,-2.28903],[-79.852523,-2.28874],[-79.851927,-2.288867],[-79.851514,-2.288469],[-79.8517,-2.28754],[-79.85208,-2.286],[-79.852234,-2.283468],[-79.85326,-2.27698],[-79.85415,-2.27466],[-79.855062,-2.272854],[-79.856647,-2.270479],[-79.85851,-2.26796],[-79.85924,-2.267287],[-79.859518,-2.266876],[-79.86005,-2.266006],[-79.860911,-2.265323],[-79.861302,-2.264716],[-79.8619,-2.264085],[-79.86338,-2.26152],[-79.863754,-2.261083],[-79.864244,-2.261066],[-79.864458,-2.261083],[-79.864956,-2.261255],[-79.865777,-2.261838],[-79.866104,-2.26163],[-79.866535,-2.261341],[-79.866604,-2.260972],[-79.866089,-2.259651],[-79.866261,-2.258828],[-79.86698,-2.25791],[-79.867591,-2.257507],[-79.86796,-2.257181],[-79.868732,-2.256649],[-79.8695,-2.255843],[-79.870275,-2.255214],[-79.871344,-2.254303],[-79.871708,-2.253725],[-79.8721,-2.25327],[-79.87241,-2.252994],[-79.873147,-2.252413],[-79.874261,-2.251515],[-79.87493,-2.2507],[-79.87749,-2.24851],[-79.877637,-2.248353],[-79.878152,-2.247613],[-79.877737,-2.247337],[-79.879274,-2.245187],[-79.880022,-2.244502],[-79.880123,-2.244409],[-79.88057,-2.244],[-79.88108,-2.24271],[-79.881222,-2.242574],[-79.88147,-2.242361],[-79.881779,-2.242327],[-79.882251,-2.24137],[-79.883023,-2.240028],[-79.88321,-2.239765],[-79.88356,-2.23927],[-79.884108,-2.237295],[-79.884205,-2.236945],[-79.884671,-2.236186],[-79.885315,-2.234042],[-79.885926,-2.232007],[-79.885959,-2.231263],[-79.886096,-2.230678],[-79.886258,-2.229084],[-79.886171,-2.228704],[-79.886295,-2.227896],[-79.886386,-2.227041],[-79.886351,-2.226375],[-79.886095,-2.225675],[-79.885956,-2.225294],[-79.886498,-2.224081],[-79.885887,-2.221058],[-79.88546,-2.21822],[-79.885421,-2.217887],[-79.885229,-2.216271],[-79.88517,-2.213897],[-79.884924,-2.211568],[-79.884937,-2.211242],[-79.884727,-2.210481],[-79.884542,-2.209812],[-79.884475,-2.209538],[-79.884412,-2.209426],[-79.884406,-2.209349],[-79.884402,-2.209284],[-79.884397,-2.209222],[-79.884286,-2.20849],[-79.884263,-2.208343],[-79.884121,-2.207654],[-79.884072,-2.207416],[-79.883992,-2.207029],[-79.88387,-2.20644],[-79.883711,-2.205668],[-79.883686,-2.205555],[-79.883571,-2.205043],[-79.88355,-2.204947],[-79.883465,-2.20495],[-79.883462,-2.204915],[-79.883445,-2.204709],[-79.883433,-2.204667],[-79.883383,-2.204501],[-79.883373,-2.204468],[-79.883335,-2.204394],[-79.883239,-2.204208],[-79.883139,-2.204235],[-79.883083,-2.204025],[-79.883188,-2.203988],[-79.883139,-2.203838],[-79.883075,-2.203731],[-79.88296,-2.203755],[-79.882694,-2.202967],[-79.882734,-2.202927],[-79.882273,-2.201796],[-79.88216,-2.201538],[-79.88224,-2.201503],[-79.88203,-2.201172],[-79.881813,-2.201232],[-79.881156,-2.199639],[-79.881027,-2.199673],[-79.880462,-2.197435],[-79.880398,-2.197218],[-79.880316,-2.196925],[-79.880428,-2.196897],[-79.88039,-2.19676],[-79.880386,-2.196741],[-79.880095,-2.195485],[-79.880139,-2.195468],[-79.880177,-2.19545],[-79.880133,-2.195232],[-79.880096,-2.195062],[-79.880052,-2.194863],[-79.879962,-2.194857],[-79.879898,-2.19485],[-79.879175,-2.193197],[-79.878905,-2.192633],[-79.878775,-2.192337],[-79.879238,-2.192137],[-79.878301,-2.19007],[-79.878124,-2.189681],[-79.877568,-2.188619],[-79.877216,-2.187977],[-79.876905,-2.188107],[-79.876867,-2.188023],[-79.876855,-2.187994],[-79.876372,-2.186908],[-79.876025,-2.187062],[-79.875921,-2.186695],[-79.875806,-2.186687],[-79.875799,-2.186608],[-79.875713,-2.186614],[-79.875697,-2.186262],[-79.875786,-2.186265],[-79.87578,-2.186159],[-79.875952,-2.186156],[-79.87599,-2.186011],[-79.875727,-2.185933],[-79.875797,-2.185689],[-79.875373,-2.185552],[-79.875463,-2.185222],[-79.875393,-2.185203],[-79.875417,-2.185129],[-79.875385,-2.185121],[-79.875407,-2.18505],[-79.875357,-2.185038],[-79.875377,-2.184961],[-79.875322,-2.18491],[-79.875294,-2.184844],[-79.875284,-2.184771],[-79.8753,-2.18466],[-79.875082,-2.184596],[-79.875175,-2.184552],[-79.875118,-2.184402],[-79.875082,-2.184259],[-79.875055,-2.184063],[-79.875007,-2.183924],[-79.874905,-2.183891],[-79.874867,-2.183768],[-79.874795,-2.183672],[-79.874741,-2.183506],[-79.874573,-2.183186],[-79.874257,-2.182826],[-79.873984,-2.182444],[-79.87387,-2.182201],[-79.873649,-2.18173],[-79.873608,-2.181642],[-79.873616,-2.181591],[-79.873695,-2.18114],[-79.873899,-2.180624],[-79.873958,-2.180473],[-79.87403,-2.180395],[-79.874686,-2.179672],[-79.874781,-2.179567],[-79.874833,-2.179511],[-79.874877,-2.17953],[-79.87492,-2.179548],[-79.874975,-2.179572],[-79.875016,-2.179536],[-79.875348,-2.179246],[-79.875486,-2.179124],[-79.87543,-2.178959],[-79.875443,-2.178906],[-79.87546,-2.178836],[-79.875456,-2.178752],[-79.875452,-2.178692],[-79.875524,-2.178509],[-79.875592,-2.178335],[-79.875816,-2.178204],[-79.875914,-2.178228],[-79.875943,-2.178166],[-79.876098,-2.177843],[-79.876185,-2.177661],[-79.876066,-2.177596],[-79.876029,-2.177478],[-79.876099,-2.177333],[-79.876155,-2.177239],[-79.876142,-2.177182],[-79.876112,-2.177054],[-79.876117,-2.176797],[-79.876142,-2.176609],[-79.876295,-2.176443],[-79.876412,-2.176057],[-79.876427,-2.175648],[-79.876484,-2.175477],[-79.876686,-2.175358],[-79.876659,-2.175325],[-79.876445,-2.175368],[-79.8763,-2.174867],[-79.876329,-2.174572],[-79.876337,-2.174379],[-79.876428,-2.174119],[-79.876538,-2.173924],[-79.87656,-2.17388],[-79.876583,-2.17383],[-79.876616,-2.17376],[-79.876699,-2.173177],[-79.876364,-2.172807],[-79.876346,-2.171179],[-79.876219,-2.165024],[-79.876213,-2.164733],[-79.876173,-2.162804],[-79.871228,-2.159017],[-79.865402,-2.159256],[-79.854108,-2.169353],[-79.854812,-2.171139],[-79.855319,-2.172194],[-79.855803,-2.173211],[-79.856154,-2.172985],[-79.857032,-2.174074],[-79.859013,-2.177785],[-79.858451,-2.178262],[-79.858497,-2.178356],[-79.859099,-2.17805],[-79.859529,-2.17876],[-79.860061,-2.180328],[-79.860177,-2.180999],[-79.86052,-2.181594],[-79.860354,-2.182458],[-79.860115,-2.182778],[-79.860129,-2.183192],[-79.860047,-2.184043],[-79.85986,-2.184934],[-79.859702,-2.185591],[-79.859432,-2.186241],[-79.859417,-2.186605],[-79.859423,-2.18674],[-79.859144,-2.186745],[-79.857995,-2.187968],[-79.857835,-2.188052],[-79.857651,-2.188064],[-79.857505,-2.188059],[-79.857349,-2.188083],[-79.857223,-2.188087],[-79.857119,-2.18808],[-79.857056,-2.188093],[-79.856988,-2.188113],[-79.856914,-2.1881],[-79.85683,-2.188113],[-79.856776,-2.18813],[-79.856701,-2.188182],[-79.856593,-2.188197],[-79.856492,-2.188195],[-79.856336,-2.18812],[-79.856037,-2.187992],[-79.855624,-2.187907],[-79.855235,-2.187823],[-79.855013,-2.187788],[-79.854832,-2.187746],[-79.854554,-2.187763],[-79.854383,-2.187763],[-79.854136,-2.187705],[-79.853999,-2.18766],[-79.853824,-2.187579],[-79.853699,-2.187554],[-79.853598,-2.187537],[-79.853551,-2.187607],[-79.853476,-2.187629],[-79.853406,-2.187596],[-79.853356,-2.187534],[-79.853251,-2.187509],[-79.853114,-2.187531],[-79.853064,-2.18757],[-79.852917,-2.187531],[-79.852828,-2.187503],[-79.852728,-2.187519],[-79.852539,-2.187455],[-79.852447,-2.187447],[-79.852297,-2.187374],[-79.852243,-2.187334],[-79.852155,-2.187421],[-79.852074,-2.187441],[-79.851971,-2.187401],[-79.851907,-2.187452],[-79.851849,-2.187452],[-79.851777,-2.187488],[-79.85171,-2.187527],[-79.851657,-2.187597],[-79.851601,-2.187591],[-79.851574,-2.187631],[-79.851515,-2.187647],[-79.851443,-2.187656],[-79.851401,-2.187706],[-79.851029,-2.187702],[-79.850792,-2.187722],[-79.850246,-2.187853],[-79.849596,-2.187516],[-79.849183,-2.187467],[-79.847902,-2.187572],[-79.846445,-2.187957],[-79.844897,-2.188545],[-79.843833,-2.189204],[-79.843277,-2.189653],[-79.843024,-2.189964],[-79.842287,-2.190331],[-79.840245,-2.191804],[-79.839299,-2.192843],[-79.837793,-2.194672],[-79.836817,-2.196183],[-79.836716,-2.196144],[-79.836845,-2.195841],[-79.836554,-2.195842],[-79.836542,-2.196452],[-79.83623,-2.19708],[-79.835556,-2.198015],[-79.835596,-2.198334],[-79.835408,-2.199064],[-79.835109,-2.199179],[-79.833523,-2.20108],[-79.833343,-2.201429],[-79.832517,-2.202427],[-79.831477,-2.204296],[-79.830333,-2.20628],[-79.829762,-2.207311],[-79.8283,-2.210243],[-79.82758,-2.212928],[-79.826994,-2.215364],[-79.827057,-2.215612],[-79.826863,-2.216092],[-79.826844,-2.218032],[-79.826876,-2.218772],[-79.827016,-2.219318],[-79.82683,-2.219887],[-79.826833,-2.224078],[-79.827179,-2.227835],[-79.827334,-2.228673],[-79.82699,-2.229743],[-79.827012,-2.231688],[-79.827293,-2.234075],[-79.827931,-2.235893],[-79.828202,-2.236468],[-79.828492,-2.237298],[-79.828045,-2.237741],[-79.82813,-2.237856],[-79.828579,-2.237665],[-79.829327,-2.23981],[-79.829974,-2.244926],[-79.829797,-2.247384],[-79.829988,-2.247649],[-79.82977,-2.248489],[-79.829714,-2.251114],[-79.829699,-2.252169],[-79.829828,-2.252692],[-79.829803,-2.253488],[-79.829269,-2.253924],[-79.829296,-2.254212],[-79.829432,-2.254404],[-79.829425,-2.25711],[-79.829298,-2.257534],[-79.829079,-2.257747],[-79.828356,-2.258063],[-79.828392,-2.258236],[-79.829028,-2.258573],[-79.82916,-2.258911],[-79.829093,-2.261342],[-79.82874,-2.264041],[-79.828052,-2.264336],[-79.827585,-2.26479],[-79.827962,-2.26508],[-79.828692,-2.265283],[-79.828728,-2.266124],[-79.828264,-2.266333],[-79.828574,-2.267416],[-79.828885,-2.267587],[-79.82912,-2.268735],[-79.828481,-2.26869],[-79.828529,-2.269638],[-79.828696,-2.269823],[-79.829122,-2.269788],[-79.829146,-2.270148],[-79.828846,-2.270139],[-79.828796,-2.270735],[-79.827999,-2.270713],[-79.828022,-2.270914],[-79.828043,-2.2711],[-79.828422,-2.27141],[-79.828583,-2.272037],[-79.828826,-2.272457],[-79.828522,-2.273737],[-79.828618,-2.274235],[-79.828388,-2.274757],[-79.82857,-2.278291],[-79.828336,-2.279883],[-79.828777,-2.282728],[-79.829605,-2.284002],[-79.830265,-2.288455],[-79.830564,-2.288542],[-79.830436,-2.289581],[-79.82979,-2.29165],[-79.830203,-2.291827],[-79.829875,-2.293559],[-79.829842,-2.297037],[-79.830303,-2.297567],[-79.830002,-2.297988],[-79.829807,-2.298251],[-79.829451,-2.300276],[-79.82811,-2.31098],[-79.82566,-2.32593],[-79.824985,-2.328858],[-79.824521,-2.332531],[-79.824542,-2.334401],[-79.824242,-2.337294],[-79.824427,-2.338605],[-79.824705,-2.338588],[-79.824641,-2.33901],[-79.824401,-2.339047],[-79.824304,-2.339493]]]}},{"type":"Feature","properties":{"water_body":"estero_salado","name":"Brazo de estero salado","source":"osm_way_28618517"},"geometry":{"type":"Polygon","coordinates":[[[-79.902724,-2.143568],[-79.905531,-2.145618],[-79.90519,-2.145363],[-79.904547,-2.146913],[-79.904441,-2.147294],[-79.904412,-2.14761],[-79.904449,-2.148089],[-79.904525,-2.149826],[-79.904594,-2.14988],[-79.904363,-2.150475],[-79.904678,-2.1502],[-79.904371,-2.150209],[-79.903905,-2.150054],[-79.90323,-2.150115],[-79.902775,-2.150463],[-79.902755,-2.150463],[-79.902489,-2.150602],[-79.901652,-2.150786],[-79.901056,-2.151329],[-79.901007,-2.15198],[-79.901107,-2.152448],[-79.901389,-2.152813],[-79.901753,-2.153088],[-79.902225,-2.153214],[-79.902689,-2.153216],[-79.902772,-2.153175],[-79.902783,-2.153196],[-79.903173,-2.153306],[-79.903356,-2.15338],[-79.903431,-2.153502],[-79.903444,-2.153297],[-79.903302,-2.153421],[-79.902911,-2.1539],[-79.902779,-2.154568],[-79.902748,-2.154846],[-79.902836,-2.155522],[-79.902595,-2.156514],[-79.902473,-2.156906],[-79.902571,-2.156761],[-79.902237,-2.157257],[-79.902349,-2.157881],[-79.902324,-2.158003],[-79.90352,-2.158109],[-79.903539,-2.157733],[-79.903427,-2.157413],[-79.903489,-2.157533],[-79.903621,-2.157252],[-79.903757,-2.156812],[-79.90403,-2.155632],[-79.903946,-2.154764],[-79.903963,-2.154768],[-79.904007,-2.15439],[-79.9042,-2.154217],[-79.904538,-2.153791],[-79.904551,-2.153072],[-79.904158,-2.152488],[-79.903607,-2.152188],[-79.903105,-2.15204],[-79.902772,-2.151975],[-79.902581,-2.15202],[-79.902359,-2.152022],[-79.902281,-2.15201],[-79.902215,-2.151943],[-79.902205,-2.151964],[-79.902203,-2.151884],[-79.902154,-2.151813],[-79.902072,-2.15191],[-79.902833,-2.151752],[-79.903285,-2.151539],[-79.903491,-2.151427],[-79.903722,-2.151209],[-79.903699,-2.151236],[-79.904161,-2.151391],[-79.904678,-2.1514],[-79.905371,-2.151125],[-79.905758,-2.150176],[-79.905723,-2.149748],[-79.905647,-2.148027],[-79.905612,-2.147574],[-79.905617,-2.147532],[-79.905663,-2.147351],[-79.906292,-2.145837],[-79.906355,-2.144746],[-79.903434,-2.1426],[-79.902724,-2.143568]]]}},{"type":"Feature","properties":{"water_body":"estero_salado","name":"Estero Huaquilla","source":"osm_way_28619199"},"geometry":{"type":"Polygon","coordinates":[[[-79.856833,-2.224358],[-79.858146,-2.224034],[-79.858869,-2.223763],[-79.859112,-2.223816],[-79.860056,-2.223886],[-79.861159,-2.223896],[-79.861744,-2.224149],[-79.862177,-2.224385],[-79.862579,-2.224438],[-79.86261,-2.224423],[-79.862702,-2.224674],[-79.863515,-2.22509],[-79.864155,-2.22457],[-79.86423,-2.22432],[-79.864464,-2.224169],[-79.864516,-2.224193],[-79.864569,-2.224212],[-79.864803,-2.22447],[-79.865034,-2.224703],[-79.865286,-2.225954],[-79.865462,-2.226828],[-79.865609,-2.227126],[-79.865382,-2.22738],[-79.864942,-2.227884],[-79.864668,-2.228456],[-79.864803,-2.229245],[-79.865294,-2.229643],[-79.865383,-2.229752],[-79.865485,-2.23007],[-79.865688,-2.230857],[-79.866346,-2.231495],[-79.867194,-2.231494],[-79.867573,-2.231494],[-79.867573,-2.230294],[-79.867164,-2.230294],[-79.86669,-2.230345],[-79.866782,-2.230365],[-79.866641,-2.229746],[-79.866451,-2.229206],[-79.866112,-2.228765],[-79.865779,-2.228547],[-79.865844,-2.2287],[-79.865914,-2.228586],[-79.866332,-2.228112],[-79.866791,-2.227338],[-79.86663,-2.226556],[-79.866462,-2.225714],[-79.866166,-2.224305],[-79.865709,-2.223682],[-79.865291,-2.223254],[-79.864744,-2.223015],[-79.864058,-2.223039],[-79.863364,-2.223488],[-79.863165,-2.22389],[-79.863255,-2.223918],[-79.86369,-2.223992],[-79.863474,-2.223591],[-79.862905,-2.223284],[-79.862567,-2.223251],[-79.862246,-2.223059],[-79.861355,-2.222712],[-79.860106,-2.222688],[-79.859212,-2.22262],[-79.858631,-2.222587],[-79.85781,-2.222882],[-79.856547,-2.223192],[-79.856833,-2.224358]]]}},{"type":"Feature","properties":{"water_body":"estero_salado","name":"Estero Mongon","source":"osm_way_33837745"},"geometry":{"type":"Polygon","coordinates":[[[-79.98603,-2.202596],[-79.985197,-2.205408],[-79.984533,-2.208429],[-79.983699,-2.21031],[-79.981416,-2.212432],[-79.980013,-2.214194],[-79.979543,-2.216466],[-79.979961,-2.219128],[-79.980422,-2.22328],[-79.979934,-2.225004],[-79.978684,-2.226247],[-79.976637,-2.227051],[-79.973697,-2.227462],[-79.971297,-2.228335],[-79.968474,-2.230006],[-79.963676,-2.232637],[-79.961686,-2.233669],[-79.959852,-2.234652],[-79.960418,-2.23571],[-79.962246,-2.234731],[-79.964246,-2.233693],[-79.969064,-2.23105],[-79.971825,-2.229413],[-79.973975,-2.22863],[-79.976927,-2.228215],[-79.979326,-2.227261],[-79.980972,-2.225608],[-79.981622,-2.2233],[-79.981151,-2.218974],[-79.980743,-2.216466],[-79.981099,-2.214706],[-79.982282,-2.213262],[-79.984651,-2.211042],[-79.985679,-2.208787],[-79.986359,-2.205706],[-79.98718,-2.202936],[-79.98603,-2.202596]]]}},{"type":"Feature","properties":{"water_body":"estero_salado","name":"Estero Santa Ana","source":"osm_way_33837748"},"geometry":{"type":"Polygon","coordinates":[[[-79.960647,-2.234869],[-79.95915,-2.232545],[-79.95615,-2.232328],[-79.952778,-2.234131],[-79.950965,-2.235007],[-79.948569,-2.234995],[-79.947002,-2.235248],[-79.946786,-2.235283],[-79.946978,-2.236467],[-79.947196,-2.236432],[-79.948643,-2.236193],[-79.951211,-2.236181],[-79.953328,-2.235197],[-79.95647,-2.233484],[-79.958536,-2.233577],[-79.959623,-2.235493],[-79.960647,-2.234869]]]}},{"type":"Feature","properties":{"water_body":"estero_salado","name":"Estero El Salado","source":"osm_way_33837752"},"geometry":{"type":"Polygon","coordinates":[[[-79.958936,-2.235231],[-79.959094,-2.238021],[-79.960762,-2.240997],[-79.964555,-2.245757],[-79.965865,-2.248903],[-79.968734,-2.250737],[-79.973431,-2.251749],[-79.977146,-2.252886],[-79.978295,-2.254058],[-79.978375,-2.256737],[-79.978015,-2.259019],[-79.976282,-2.263444],[-79.972041,-2.268488],[-79.969368,-2.272866],[-79.96695,-2.277861],[-79.962659,-2.284685],[-79.960919,-2.28863],[-79.961361,-2.29258],[-79.964089,-2.296088],[-79.968881,-2.298787],[-79.972247,-2.301459],[-79.973176,-2.30371],[-79.97317,-2.305969],[-79.971324,-2.308842],[-79.967121,-2.311333],[-79.959225,-2.314482],[-79.954955,-2.318448],[-79.953181,-2.322156],[-79.95291,-2.326611],[-79.955039,-2.331727],[-79.960836,-2.339168],[-79.966834,-2.343603],[-79.9778,-2.352624],[-79.986972,-2.356141],[-79.996913,-2.356832],[-80.005628,-2.358245],[-80.012273,-2.360941],[-80.015577,-2.364554],[-80.017032,-2.368557],[-80.017838,-2.373418],[-80.019609,-2.383777],[-80.022648,-2.394149],[-80.02798,-2.406988],[-80.031395,-2.417233],[-80.03593,-2.427532],[-80.041339,-2.446032],[-80.046664,-2.4648],[-80.056766,-2.49934],[-80.058396,-2.507647],[-80.071057,-2.530761],[-80.07533,-2.538627],[-80.087944,-2.561851],[-80.104117,-2.590218],[-80.130224,-2.619339],[-80.13201,-2.617737],[-80.106051,-2.588796],[-80.09004,-2.560681],[-80.077438,-2.537481],[-80.073163,-2.529609],[-80.06058,-2.506653],[-80.059082,-2.498708],[-80.04897,-2.464132],[-80.043645,-2.445368],[-80.038198,-2.426748],[-80.033633,-2.416367],[-80.030224,-2.406138],[-80.024906,-2.393335],[-80.021947,-2.383235],[-80.020204,-2.373016],[-80.019354,-2.367951],[-80.017605,-2.36327],[-80.013567,-2.358921],[-80.006254,-2.355929],[-79.997183,-2.354448],[-79.98748,-2.353795],[-79.979074,-2.35059],[-79.968326,-2.341723],[-79.962536,-2.337474],[-79.957063,-2.330439],[-79.955264,-2.326145],[-79.955509,-2.322742],[-79.956837,-2.319936],[-79.960425,-2.31656],[-79.968143,-2.313505],[-79.972936,-2.31062],[-79.975432,-2.306773],[-79.97553,-2.30324],[-79.974079,-2.299909],[-79.970209,-2.296789],[-79.965591,-2.294216],[-79.963563,-2.291624],[-79.963281,-2.28906],[-79.964747,-2.285869],[-79.969038,-2.279045],[-79.971478,-2.27401],[-79.973975,-2.26991],[-79.978316,-2.264718],[-79.980307,-2.259733],[-79.980773,-2.256845],[-79.980543,-2.253216],[-79.97828,-2.25077],[-79.974033,-2.249425],[-79.969528,-2.248473],[-79.967745,-2.247411],[-79.966573,-2.244457],[-79.962714,-2.239601],[-79.961384,-2.237303],[-79.961334,-2.235131],[-79.958936,-2.235231]]]}},{"type":"Feature","properties":{"water_body":"estero_salado","name":"Estero Cobina","source":"osm_way_35416928"},"geometry":{"type":"Polygon","coordinates":[[[-79.902659,-2.285045],[-79.896723,-2.286074],[-79.893619,-2.286738],[-79.891933,-2.286503],[-79.887858,-2.28595],[-79.881044,-2.285118],[-79.879098,-2.285085],[-79.877604,-2.285771],[-79.876143,-2.28703],[-79.875477,-2.286912],[-79.87436,-2.286481],[-79.872709,-2.285054],[-79.871441,-2.283015],[-79.871228,-2.279965],[-79.871631,-2.277686],[-79.873766,-2.272509],[-79.872656,-2.272051],[-79.870493,-2.277302],[-79.870028,-2.279923],[-79.870289,-2.283355],[-79.871787,-2.285822],[-79.873694,-2.287479],[-79.875185,-2.288076],[-79.876653,-2.288116],[-79.878276,-2.286765],[-79.879312,-2.286265],[-79.880922,-2.286312],[-79.887706,-2.28714],[-79.891773,-2.287693],[-79.893723,-2.287934],[-79.896943,-2.287254],[-79.902865,-2.286227],[-79.902659,-2.285045]]]}},{"type":"Feature","properties":{"water_body":"estero_salado","name":"Estero del Lagarto","source":"osm_way_35416929"},"geometry":{"type":"Polygon","coordinates":[[[-79.874532,-2.261814],[-79.874294,-2.262171],[-79.874228,-2.262678],[-79.874354,-2.263057],[-79.874506,-2.263287],[-79.874544,-2.263437],[-79.87474,-2.26375],[-79.874881,-2.263859],[-79.874808,-2.263706],[-79.874815,-2.263977],[-79.874884,-2.264147],[-79.874898,-2.264471],[-79.874853,-2.26502],[-79.875015,-2.265538],[-79.875129,-2.265877],[-79.875189,-2.266147],[-79.875197,-2.266366],[-79.875095,-2.266592],[-79.874951,-2.266769],[-79.874718,-2.266896],[-79.87433,-2.267174],[-79.87403,-2.267411],[-79.873665,-2.267903],[-79.873558,-2.268603],[-79.873691,-2.268989],[-79.873716,-2.26903],[-79.873543,-2.269192],[-79.873239,-2.269352],[-79.873823,-2.2704],[-79.874295,-2.270128],[-79.874794,-2.269558],[-79.874881,-2.268831],[-79.874754,-2.268497],[-79.874771,-2.268369],[-79.874888,-2.268249],[-79.875042,-2.26814],[-79.87538,-2.267896],[-79.875745,-2.267669],[-79.876125,-2.267208],[-79.876369,-2.26662],[-79.876383,-2.266031],[-79.876287,-2.265561],[-79.876151,-2.265152],[-79.876047,-2.264902],[-79.876098,-2.264507],[-79.87607,-2.263969],[-79.875997,-2.263773],[-79.875998,-2.263548],[-79.875829,-2.263123],[-79.875638,-2.262954],[-79.875644,-2.262955],[-79.87558,-2.262751],[-79.875406,-2.262479],[-79.875422,-2.262566],[-79.875398,-2.262639],[-79.875506,-2.262514],[-79.874532,-2.261814]]]}},{"type":"Feature","properties":{"water_body":"estero_salado","name":"Estero El Batán","source":"osm_way_42104580"},"geometry":{"type":"Polygon","coordinates":[[[-79.87312,-2.064418],[-79.873334,-2.064392],[-79.873881,-2.064613],[-79.874496,-2.065086],[-79.875493,-2.064855],[-79.875772,-2.064333],[-79.876083,-2.063935],[-79.876158,-2.063726],[-79.876553,-2.063513],[-79.877145,-2.063107],[-79.877167,-2.062815],[-79.8771,-2.062818],[-79.877597,-2.063049],[-79.878499,-2.062958],[-79.879097,-2.062464],[-79.880429,-2.062415],[-79.881017,-2.062629],[-79.881858,-2.062188],[-79.882066,-2.061712],[-79.882134,-2.061783],[-79.88353,-2.061416],[-79.883226,-2.060256],[-79.881828,-2.060623],[-79.881206,-2.060876],[-79.880948,-2.061406],[-79.880993,-2.061429],[-79.880513,-2.061217],[-79.878785,-2.061306],[-79.877997,-2.061868],[-79.877801,-2.061867],[-79.877144,-2.061618],[-79.876261,-2.062029],[-79.876215,-2.062349],[-79.875937,-2.062483],[-79.875348,-2.06284],[-79.875085,-2.063269],[-79.874746,-2.063713],[-79.874709,-2.063947],[-79.874876,-2.063948],[-79.874489,-2.063579],[-79.873634,-2.06323],[-79.873098,-2.063218],[-79.87312,-2.064418]]]}},{"type":"Feature","properties":{"water_body":"estero_salado","name":"Estero El Batán","source":"osm_way_47586054"},"geometry":{"type":"Polygon","coordinates":[[[-79.861676,-2.042646],[-79.861625,-2.04366],[-79.861627,-2.044001],[-79.861669,-2.044307],[-79.861645,-2.044428],[-79.861577,-2.044653],[-79.861556,-2.045019],[-79.861586,-2.045463],[-79.861686,-2.045878],[-79.861918,-2.046249],[-79.862292,-2.046604],[-79.862548,-2.046855],[-79.862612,-2.046942],[-79.862595,-2.046908],[-79.862489,-2.047352],[-79.862405,-2.047729],[-79.862437,-2.048203],[-79.862539,-2.048994],[-79.862661,-2.049534],[-79.862882,-2.049944],[-79.863169,-2.050306],[-79.863338,-2.050594],[-79.863395,-2.050948],[-79.863391,-2.051153],[-79.863333,-2.052485],[-79.863305,-2.053139],[-79.863527,-2.05371],[-79.863906,-2.054047],[-79.864421,-2.054452],[-79.864524,-2.054581],[-79.864781,-2.054984],[-79.864942,-2.055348],[-79.865025,-2.055722],[-79.866195,-2.055452],[-79.866078,-2.054962],[-79.865837,-2.054414],[-79.865506,-2.053891],[-79.865221,-2.053558],[-79.86466,-2.053113],[-79.864475,-2.052976],[-79.864501,-2.053039],[-79.864531,-2.052541],[-79.864591,-2.051197],[-79.864587,-2.050814],[-79.864468,-2.050192],[-79.864167,-2.04964],[-79.863868,-2.04926],[-79.863795,-2.049142],[-79.863723,-2.048802],[-79.863629,-2.048069],[-79.863603,-2.047801],[-79.863655,-2.047632],[-79.863783,-2.04708],[-79.863748,-2.046556],[-79.863478,-2.046097],[-79.863128,-2.045742],[-79.862808,-2.045443],[-79.862802,-2.045438],[-79.862776,-2.045303],[-79.862756,-2.044997],[-79.862761,-2.044851],[-79.862817,-2.044688],[-79.862869,-2.044295],[-79.862823,-2.043915],[-79.862825,-2.043706],[-79.862874,-2.042706],[-79.861676,-2.042646]]]}},{"type":"Feature","properties":{"water_body":"estero_salado","name":"Estero El Batán","source":"osm_way_47586055"},"geometry":{"type":"Polygon","coordinates":[[[-79.86516,-2.056294],[-79.866066,-2.058376],[-79.866408,-2.058783],[-79.86775,-2.059586],[-79.867687,-2.059629],[-79.868104,-2.059961],[-79.868612,-2.060001],[-79.868856,-2.059906],[-79.868707,-2.059896],[-79.869025,-2.060208],[-79.869104,-2.060313],[-79.869324,-2.061033],[-79.870189,-2.061475],[-79.870864,-2.061417],[-79.870823,-2.061324],[-79.870477,-2.061312],[-79.870882,-2.061641],[-79.871531,-2.062291],[-79.872159,-2.062377],[-79.872011,-2.061187],[-79.872239,-2.061323],[-79.871698,-2.060761],[-79.871165,-2.060328],[-79.870469,-2.060178],[-79.870252,-2.060385],[-79.870577,-2.060339],[-79.870216,-2.060231],[-79.870236,-2.059913],[-79.869939,-2.05943],[-79.869495,-2.058992],[-79.868932,-2.058708],[-79.868438,-2.058813],[-79.868496,-2.058827],[-79.868675,-2.058947],[-79.868436,-2.058602],[-79.867064,-2.057779],[-79.867156,-2.057874],[-79.86626,-2.055816],[-79.86516,-2.056294]]]}},{"type":"Feature","properties":{"water_body":"estero_salado","name":"Estero El Batán","source":"osm_way_47586057"},"geometry":{"type":"Polygon","coordinates":[[[-79.872234,-2.062403],[-79.872439,-2.062486],[-79.872375,-2.062433],[-79.872414,-2.062647],[-79.872518,-2.06277],[-79.872542,-2.062824],[-79.872455,-2.062854],[-79.872354,-2.063375],[-79.872435,-2.063851],[-79.872604,-2.064142],[-79.873614,-2.063494],[-79.873561,-2.063439],[-79.873554,-2.063415],[-79.873579,-2.063274],[-79.87373,-2.062992],[-79.873654,-2.062382],[-79.87352,-2.062181],[-79.873497,-2.062007],[-79.873195,-2.061554],[-79.872762,-2.061325],[-79.872234,-2.062403]]]}},{"type":"Feature","properties":{"water_body":"estero_salado","name":"Estero El Batán","source":"osm_way_47586058"},"geometry":{"type":"Polygon","coordinates":[[[-79.871968,-2.062371],[-79.872381,-2.062453],[-79.872615,-2.061275],[-79.872202,-2.061193],[-79.871968,-2.062371]]]}},{"type":"Feature","properties":{"water_body":"estero_salado","name":"Estero El Batán","source":"osm_way_47586059"},"geometry":{"type":"Polygon","coordinates":[[[-79.865023,-2.055712],[-79.865123,-2.05618],[-79.866297,-2.05593],[-79.866197,-2.055462],[-79.865023,-2.055712]]]}},{"type":"Feature","properties":{"water_body":"estero_salado","name":"Estero San Camilo","source":"osm_way_48501446"},"geometry":{"type":"Polygon","coordinates":[[[-79.814233,-2.20746],[-79.813478,-2.207333],[-79.812886,-2.20743],[-79.81187,-2.207753],[-79.811504,-2.207731],[-79.81105,-2.207848],[-79.810614,-2.208159],[-79.810457,-2.208126],[-79.809346,-2.208126],[-79.808534,-2.208194],[-79.807823,-2.208285],[-79.807963,-2.209551],[-79.808659,-2.209476],[-79.810615,-2.209454],[-79.811174,-2.209346],[-79.811497,-2.209163],[-79.811554,-2.209103],[-79.811995,-2.209107],[-79.812569,-2.208964],[-79.813274,-2.2087],[-79.813271,-2.208686],[-79.81453,-2.208963],[-79.814409,-2.208886],[-79.81483,-2.209964],[-79.815239,-2.210485],[-79.81599,-2.210862],[-79.816355,-2.211083],[-79.816603,-2.211321],[-79.81665,-2.211485],[-79.816707,-2.212173],[-79.816594,-2.212503],[-79.81664,-2.212802],[-79.81627,-2.213188],[-79.816136,-2.213846],[-79.816393,-2.214494],[-79.816976,-2.215058],[-79.8183,-2.215964],[-79.819672,-2.216635],[-79.820094,-2.216959],[-79.820712,-2.217616],[-79.821988,-2.218248],[-79.822496,-2.218399],[-79.823039,-2.218433],[-79.823932,-2.218947],[-79.824757,-2.219136],[-79.825922,-2.218688],[-79.825784,-2.218685],[-79.826985,-2.219362],[-79.827385,-2.217772],[-79.826704,-2.217583],[-79.826382,-2.217341],[-79.825616,-2.217203],[-79.824773,-2.217507],[-79.824747,-2.217556],[-79.824481,-2.217447],[-79.82397,-2.217062],[-79.823263,-2.216909],[-79.822592,-2.216931],[-79.82159,-2.216434],[-79.821109,-2.215949],[-79.820247,-2.215341],[-79.819477,-2.215033],[-79.818572,-2.21452],[-79.817604,-2.213785],[-79.817578,-2.213696],[-79.81756,-2.213922],[-79.817669,-2.213821],[-79.817919,-2.213293],[-79.817988,-2.212647],[-79.818088,-2.21192],[-79.81802,-2.211175],[-79.817746,-2.210541],[-79.817189,-2.209961],[-79.816468,-2.209609],[-79.816161,-2.209557],[-79.815614,-2.208218],[-79.815073,-2.207765],[-79.81434,-2.207489],[-79.81392,-2.208613],[-79.814561,-2.208851],[-79.814556,-2.208784],[-79.815169,-2.210233],[-79.815956,-2.210695],[-79.816501,-2.210943],[-79.816758,-2.211221],[-79.81685,-2.211445],[-79.816888,-2.21188],[-79.816796,-2.212503],[-79.816757,-2.212993],[-79.816621,-2.213237],[-79.816386,-2.213672],[-79.81652,-2.214264],[-79.816814,-2.214689],[-79.817906,-2.215518],[-79.818947,-2.216109],[-79.819665,-2.216391],[-79.820349,-2.216877],[-79.82094,-2.217442],[-79.822256,-2.218083],[-79.823173,-2.218105],[-79.823452,-2.218144],[-79.823885,-2.218489],[-79.824585,-2.218744],[-79.825159,-2.218643],[-79.825798,-2.218389],[-79.825912,-2.218445],[-79.82647,-2.218759],[-79.826303,-2.218292],[-79.826767,-2.218182],[-79.826402,-2.217657],[-79.82562,-2.217526],[-79.824533,-2.217958],[-79.824456,-2.217867],[-79.823461,-2.217309],[-79.822694,-2.217215],[-79.822474,-2.217152],[-79.821388,-2.216626],[-79.820912,-2.216081],[-79.820262,-2.215591],[-79.818904,-2.214928],[-79.8177,-2.214102],[-79.817361,-2.213786],[-79.817318,-2.213642],[-79.81727,-2.21385],[-79.817736,-2.213292],[-79.817782,-2.212669],[-79.817905,-2.212227],[-79.817834,-2.211285],[-79.817601,-2.210655],[-79.817099,-2.210143],[-79.816562,-2.209806],[-79.815919,-2.209497],[-79.81592,-2.209462],[-79.815483,-2.208352],[-79.81491,-2.207825],[-79.813467,-2.207502],[-79.812926,-2.207552],[-79.812195,-2.207824],[-79.811845,-2.207917],[-79.811342,-2.207921],[-79.810905,-2.208119],[-79.810778,-2.208214],[-79.810565,-2.208256],[-79.808615,-2.208276],[-79.807981,-2.208351],[-79.808121,-2.209447],[-79.808654,-2.209388],[-79.809388,-2.209326],[-79.810465,-2.209326],[-79.81106,-2.209273],[-79.811632,-2.208898],[-79.811564,-2.208929],[-79.81212,-2.208927],[-79.813208,-2.208586],[-79.81343,-2.208533],[-79.814027,-2.208642],[-79.814233,-2.20746]]]}},{"type":"Feature","properties":{"water_body":"estero_salado","name":"Estero Canta Gallo","source":"osm_way_139612466"},"geometry":{"type":"Polygon","coordinates":[[[-79.720779,-2.246819],[-79.722086,-2.248549],[-79.722922,-2.249583],[-79.727987,-2.254819],[-79.728906,-2.25575],[-79.732574,-2.258058],[-79.733404,-2.258466],[-79.734053,-2.258626],[-79.73932,-2.259343],[-79.743244,-2.259894],[-79.744432,-2.260087],[-79.745367,-2.259949],[-79.748242,-2.258658],[-79.74933,-2.258091],[-79.750457,-2.257275],[-79.750999,-2.256565],[-79.751223,-2.256389],[-79.751088,-2.256466],[-79.751488,-2.25654],[-79.7524,-2.256559],[-79.753199,-2.256182],[-79.754345,-2.255721],[-79.755078,-2.255302],[-79.755756,-2.255173],[-79.756234,-2.254816],[-79.756504,-2.254706],[-79.75679,-2.254491],[-79.756645,-2.254542],[-79.756871,-2.254532],[-79.756538,-2.254338],[-79.75673,-2.2547],[-79.757388,-2.255117],[-79.759079,-2.255979],[-79.761549,-2.257417],[-79.76468,-2.259359],[-79.768091,-2.261352],[-79.769229,-2.261941],[-79.771626,-2.262829],[-79.772704,-2.263361],[-79.773706,-2.263669],[-79.774687,-2.26393],[-79.776401,-2.264653],[-79.776688,-2.264754],[-79.778228,-2.265921],[-79.779229,-2.266766],[-79.780004,-2.267107],[-79.780619,-2.267186],[-79.781173,-2.267274],[-79.782095,-2.267498],[-79.783044,-2.267412],[-79.78326,-2.267482],[-79.783775,-2.267688],[-79.784495,-2.267758],[-79.785424,-2.267748],[-79.785719,-2.267582],[-79.785793,-2.267614],[-79.787133,-2.268306],[-79.787788,-2.268747],[-79.788536,-2.269119],[-79.78951,-2.269583],[-79.790345,-2.269542],[-79.792072,-2.269284],[-79.792842,-2.268901],[-79.793637,-2.268444],[-79.794336,-2.268282],[-79.794303,-2.268205],[-79.793319,-2.267359],[-79.79411,-2.268434],[-79.795016,-2.268513],[-79.796889,-2.268201],[-79.798146,-2.26756],[-79.799247,-2.266977],[-79.798686,-2.267038],[-79.799057,-2.267193],[-79.800411,-2.26735],[-79.801042,-2.266993],[-79.800387,-2.267124],[-79.801192,-2.267328],[-79.802556,-2.267822],[-79.803391,-2.2682],[-79.804451,-2.268909],[-79.805379,-2.269096],[-79.806033,-2.268977],[-79.807157,-2.268569],[-79.808797,-2.268166],[-79.810212,-2.267968],[-79.810276,-2.267913],[-79.809641,-2.267583],[-79.809536,-2.267435],[-79.8098,-2.268252],[-79.810353,-2.268791],[-79.81051,-2.269012],[-79.810557,-2.269341],[-79.811332,-2.269969],[-79.811597,-2.27004],[-79.811117,-2.269516],[-79.811311,-2.270035],[-79.811615,-2.270261],[-79.811814,-2.270591],[-79.812194,-2.271199],[-79.813035,-2.271646],[-79.813861,-2.271658],[-79.814642,-2.27122],[-79.814668,-2.271048],[-79.814689,-2.271018],[-79.814915,-2.27116],[-79.815326,-2.271232],[-79.815723,-2.271592],[-79.816793,-2.271769],[-79.817245,-2.27162],[-79.816917,-2.271585],[-79.816534,-2.271296],[-79.817114,-2.27229],[-79.818185,-2.272795],[-79.819037,-2.272685],[-79.819849,-2.271578],[-79.81984,-2.270764],[-79.819668,-2.271116],[-79.81925,-2.271358],[-79.818679,-2.271209],[-79.819201,-2.271732],[-79.820153,-2.27209],[-79.821236,-2.271762],[-79.821658,-2.271305],[-79.821383,-2.271447],[-79.820953,-2.271337],[-79.82099,-2.271391],[-79.820901,-2.271201],[-79.820911,-2.27163],[-79.821491,-2.272643],[-79.8228,-2.272851],[-79.823337,-2.272597],[-79.823787,-2.272366],[-79.823344,-2.272343],[-79.823269,-2.272316],[-79.823192,-2.272085],[-79.823195,-2.271872],[-79.822982,-2.272125],[-79.822843,-2.273082],[-79.823079,-2.273936],[-79.823797,-2.274779],[-79.825104,-2.274899],[-79.825998,-2.274333],[-79.826559,-2.273342],[-79.826785,-2.272055],[-79.826802,-2.271897],[-79.826489,-2.272152],[-79.82692,-2.272124],[-79.827475,-2.272155],[-79.82811,-2.272111],[-79.827934,-2.269717],[-79.827453,-2.269755],[-79.82686,-2.269724],[-79.825913,-2.269822],[-79.82487,-2.270473],[-79.824449,-2.271505],[-79.824257,-2.27266],[-79.824192,-2.272753],[-79.824398,-2.272605],[-79.825037,-2.272725],[-79.825213,-2.272838],[-79.825239,-2.272962],[-79.825226,-2.272979],[-79.825451,-2.27269],[-79.825538,-2.271579],[-79.825043,-2.2707],[-79.82432,-2.270151],[-79.823169,-2.270046],[-79.822283,-2.270441],[-79.822152,-2.270541],[-79.822939,-2.270729],[-79.823269,-2.271178],[-79.823237,-2.270647],[-79.822814,-2.269831],[-79.822079,-2.269217],[-79.821085,-2.269065],[-79.820204,-2.269395],[-79.81975,-2.269878],[-79.820331,-2.269696],[-79.820657,-2.269824],[-79.820053,-2.269241],[-79.818876,-2.268988],[-79.817874,-2.269522],[-79.817452,-2.27052],[-79.817463,-2.271314],[-79.818045,-2.270499],[-79.818439,-2.270409],[-79.818988,-2.27079],[-79.818504,-2.269926],[-79.817661,-2.269303],[-79.816769,-2.269268],[-79.816345,-2.269411],[-79.816977,-2.269546],[-79.816414,-2.269092],[-79.815571,-2.268852],[-79.814629,-2.268618],[-79.813376,-2.269026],[-79.812944,-2.269522],[-79.813265,-2.269334],[-79.813653,-2.269326],[-79.81391,-2.269521],[-79.813872,-2.269357],[-79.813425,-2.268685],[-79.813249,-2.268619],[-79.813359,-2.268658],[-79.812691,-2.267904],[-79.812288,-2.267767],[-79.812625,-2.268123],[-79.812692,-2.268014],[-79.812161,-2.267213],[-79.811836,-2.26698],[-79.81183,-2.266731],[-79.811515,-2.266083],[-79.810506,-2.265523],[-79.80986,-2.265594],[-79.808331,-2.265812],[-79.806485,-2.266265],[-79.805293,-2.266693],[-79.805299,-2.266698],[-79.805601,-2.266803],[-79.804575,-2.266112],[-79.803448,-2.265594],[-79.80193,-2.265044],[-79.801025,-2.26481],[-79.800036,-2.264815],[-79.800187,-2.26496],[-79.799557,-2.264845],[-79.79926,-2.264708],[-79.798261,-2.264789],[-79.797024,-2.265438],[-79.796195,-2.265903],[-79.794706,-2.266133],[-79.794966,-2.266192],[-79.795695,-2.267017],[-79.794689,-2.265837],[-79.79378,-2.265948],[-79.792725,-2.266224],[-79.791662,-2.266811],[-79.791514,-2.26695],[-79.789965,-2.267172],[-79.790174,-2.267277],[-79.789602,-2.266969],[-79.788994,-2.266673],[-79.788313,-2.266216],[-79.786731,-2.265404],[-79.785595,-2.265186],[-79.785054,-2.265376],[-79.784577,-2.26536],[-79.784339,-2.265356],[-79.783982,-2.265194],[-79.783106,-2.265012],[-79.782255,-2.265104],[-79.781685,-2.26493],[-79.780955,-2.26481],[-79.780552,-2.264771],[-79.780649,-2.264832],[-79.779716,-2.264039],[-79.778038,-2.26277],[-79.777337,-2.262443],[-79.775509,-2.261676],[-79.774364,-2.261361],[-79.77361,-2.261139],[-79.772534,-2.260607],[-79.770149,-2.259725],[-79.769279,-2.259266],[-79.765916,-2.257303],[-79.762789,-2.255363],[-79.760241,-2.253879],[-79.758492,-2.252985],[-79.758428,-2.253004],[-79.758384,-2.252804],[-79.757489,-2.252212],[-79.756565,-2.252144],[-79.755784,-2.252313],[-79.755304,-2.252628],[-79.75491,-2.252814],[-79.75487,-2.252943],[-79.754206,-2.253066],[-79.753329,-2.253547],[-79.752233,-2.253986],[-79.75182,-2.254229],[-79.751804,-2.25416],[-79.751244,-2.254072],[-79.750253,-2.254193],[-79.749297,-2.254873],[-79.748819,-2.255521],[-79.748072,-2.256047],[-79.747226,-2.256484],[-79.744449,-2.257731],[-79.744646,-2.257697],[-79.74359,-2.25752],[-79.739648,-2.256965],[-79.734391,-2.25625],[-79.734288,-2.256234],[-79.73382,-2.256006],[-79.730284,-2.253784],[-79.729713,-2.253151],[-79.724668,-2.247937],[-79.723984,-2.247081],[-79.722693,-2.245373],[-79.720779,-2.246819]]]}},{"type":"Feature","properties":{"water_body":"estero_salado","name":"Estero Boliche","source":"osm_way_139612474"},"geometry":{"type":"Polygon","coordinates":[[[-79.716258,-2.23928],[-79.716641,-2.239197],[-79.716954,-2.239142],[-79.716916,-2.239137],[-79.71762,-2.239411],[-79.718465,-2.239311],[-79.718699,-2.239439],[-79.719239,-2.239446],[-79.719762,-2.239471],[-79.720647,-2.239319],[-79.721212,-2.238753],[-79.721238,-2.238685],[-79.721667,-2.238432],[-79.721744,-2.238363],[-79.722234,-2.238265],[-79.722207,-2.238209],[-79.723027,-2.238352],[-79.724251,-2.237454],[-79.724373,-2.23688],[-79.724997,-2.235734],[-79.726921,-2.234342],[-79.726631,-2.234406],[-79.727258,-2.23471],[-79.729183,-2.234976],[-79.73004,-2.234702],[-79.730565,-2.234575],[-79.731532,-2.23416],[-79.732203,-2.234198],[-79.733048,-2.234006],[-79.732872,-2.233996],[-79.733288,-2.234203],[-79.734215,-2.235038],[-79.734981,-2.235275],[-79.735493,-2.235723],[-79.737106,-2.236504],[-79.738862,-2.237287],[-79.740674,-2.237921],[-79.741649,-2.238162],[-79.742941,-2.238223],[-79.744032,-2.238321],[-79.744875,-2.238537],[-79.745926,-2.238661],[-79.747911,-2.238817],[-79.749251,-2.238515],[-79.749843,-2.238474],[-79.750092,-2.238677],[-79.750211,-2.238595],[-79.750455,-2.238875],[-79.751609,-2.239011],[-79.751999,-2.238824],[-79.752127,-2.238845],[-79.753076,-2.238873],[-79.753718,-2.238756],[-79.753805,-2.238625],[-79.754576,-2.238801],[-79.755548,-2.238563],[-79.756516,-2.237963],[-79.75701,-2.237828],[-79.757769,-2.237502],[-79.758061,-2.23719],[-79.758288,-2.237207],[-79.759004,-2.237019],[-79.759929,-2.237013],[-79.761136,-2.236653],[-79.761872,-2.236202],[-79.762065,-2.235936],[-79.761646,-2.236077],[-79.760914,-2.235801],[-79.761048,-2.235929],[-79.761348,-2.236445],[-79.762486,-2.236834],[-79.76398,-2.236697],[-79.763874,-2.236668],[-79.763928,-2.236822],[-79.764294,-2.236912],[-79.764135,-2.236803],[-79.764593,-2.23756],[-79.765545,-2.238018],[-79.765921,-2.238195],[-79.766586,-2.238752],[-79.767388,-2.239184],[-79.768503,-2.239562],[-79.769256,-2.2399],[-79.770464,-2.240686],[-79.770935,-2.241027],[-79.77208,-2.240995],[-79.772301,-2.24082],[-79.771447,-2.240659],[-79.77284,-2.241911],[-79.773493,-2.242102],[-79.774454,-2.24265],[-79.775441,-2.243235],[-79.776954,-2.243903],[-79.77815,-2.244638],[-79.779248,-2.245098],[-79.780392,-2.245076],[-79.780897,-2.244762],[-79.781306,-2.244633],[-79.781935,-2.244481],[-79.782087,-2.244552],[-79.783824,-2.245012],[-79.784894,-2.244867],[-79.785285,-2.244907],[-79.785795,-2.244761],[-79.78533,-2.244709],[-79.786049,-2.245047],[-79.787211,-2.244798],[-79.78729,-2.244669],[-79.787308,-2.244742],[-79.787905,-2.244632],[-79.788022,-2.244599],[-79.789266,-2.244954],[-79.789761,-2.244963],[-79.789458,-2.244835],[-79.78992,-2.245249],[-79.791277,-2.24553],[-79.791988,-2.245071],[-79.7923,-2.245044],[-79.792902,-2.244793],[-79.793434,-2.244707],[-79.794166,-2.244075],[-79.794149,-2.243971],[-79.79453,-2.243695],[-79.794165,-2.243767],[-79.794619,-2.243958],[-79.795609,-2.243931],[-79.79678,-2.243394],[-79.797336,-2.242428],[-79.796925,-2.242738],[-79.796817,-2.242798],[-79.7974,-2.242818],[-79.797912,-2.242672],[-79.798055,-2.242719],[-79.799382,-2.242885],[-79.800882,-2.243264],[-79.801868,-2.243541],[-79.803105,-2.243305],[-79.803993,-2.242569],[-79.804368,-2.241888],[-79.804517,-2.241567],[-79.805301,-2.240953],[-79.804656,-2.24106],[-79.805068,-2.241276],[-79.80611,-2.241121],[-79.806997,-2.240251],[-79.807073,-2.23958],[-79.807387,-2.238624],[-79.807536,-2.238238],[-79.807425,-2.238331],[-79.807761,-2.238265],[-79.808177,-2.237916],[-79.808562,-2.237758],[-79.809238,-2.23729],[-79.809099,-2.23732],[-79.809903,-2.237312],[-79.810983,-2.236864],[-79.811488,-2.236829],[-79.812003,-2.236898],[-79.813978,-2.236784],[-79.814941,-2.236285],[-79.815605,-2.235656],[-79.816083,-2.234994],[-79.815978,-2.235083],[-79.816189,-2.234985],[-79.816284,-2.235144],[-79.817395,-2.235023],[-79.817754,-2.234727],[-79.817972,-2.234596],[-79.817781,-2.234641],[-79.818024,-2.234711],[-79.818631,-2.234644],[-79.819221,-2.234439],[-79.819678,-2.234141],[-79.819559,-2.23414],[-79.819251,-2.234133],[-79.819091,-2.234026],[-79.819342,-2.234339],[-79.820002,-2.235466],[-79.821158,-2.23597],[-79.82219,-2.235825],[-79.823089,-2.235015],[-79.823399,-2.234312],[-79.823306,-2.23436],[-79.82279,-2.234546],[-79.822401,-2.234405],[-79.82222,-2.234173],[-79.822439,-2.234936],[-79.822746,-2.235651],[-79.823745,-2.236209],[-79.824782,-2.236047],[-79.825502,-2.235396],[-79.825774,-2.234915],[-79.825447,-2.235106],[-79.824959,-2.235013],[-79.824887,-2.235031],[-79.825035,-2.235238],[-79.825057,-2.23444],[-79.824696,-2.234943],[-79.824883,-2.23638],[-79.825413,-2.236899],[-79.825483,-2.236796],[-79.825438,-2.237173],[-79.825709,-2.238202],[-79.826985,-2.238931],[-79.827762,-2.238776],[-79.828391,-2.238389],[-79.829009,-2.2377],[-79.829192,-2.237042],[-79.829098,-2.237266],[-79.827306,-2.23567],[-79.82695,-2.236188],[-79.826873,-2.236606],[-79.826893,-2.236515],[-79.826824,-2.236566],[-79.826985,-2.236531],[-79.827861,-2.23714],[-79.827814,-2.236835],[-79.827709,-2.235896],[-79.827041,-2.235135],[-79.826755,-2.234878],[-79.826862,-2.235975],[-79.827237,-2.235442],[-79.827201,-2.234206],[-79.826809,-2.233595],[-79.826159,-2.232935],[-79.824935,-2.232762],[-79.82397,-2.233333],[-79.823604,-2.233928],[-79.823606,-2.233955],[-79.824085,-2.233833],[-79.824666,-2.234211],[-79.824733,-2.234228],[-79.824454,-2.233297],[-79.823895,-2.232527],[-79.822908,-2.232148],[-79.821774,-2.232512],[-79.821243,-2.233258],[-79.821115,-2.233651],[-79.821116,-2.233679],[-79.821292,-2.233574],[-79.82187,-2.233958],[-79.821354,-2.233031],[-79.820787,-2.232328],[-79.820089,-2.231883],[-79.819143,-2.231776],[-79.818426,-2.232093],[-79.818147,-2.232293],[-79.817999,-2.232328],[-79.818246,-2.232321],[-79.817991,-2.232251],[-79.817162,-2.232336],[-79.816404,-2.232743],[-79.816305,-2.232885],[-79.816898,-2.232824],[-79.816235,-2.232585],[-79.815112,-2.232845],[-79.814329,-2.233354],[-79.813789,-2.234086],[-79.813437,-2.234415],[-79.813604,-2.234414],[-79.811971,-2.234498],[-79.81147,-2.234429],[-79.810341,-2.234552],[-79.809327,-2.234982],[-79.808835,-2.234934],[-79.80802,-2.235222],[-79.80734,-2.235692],[-79.806889,-2.235892],[-79.806607,-2.236161],[-79.806185,-2.236275],[-79.805476,-2.237006],[-79.805127,-2.237816],[-79.804739,-2.23902],[-79.804739,-2.239437],[-79.805188,-2.238905],[-79.805472,-2.23891],[-79.805128,-2.238708],[-79.803945,-2.238973],[-79.802795,-2.239895],[-79.802266,-2.24073],[-79.802123,-2.241065],[-79.802055,-2.241147],[-79.802076,-2.241149],[-79.801508,-2.240948],[-79.799838,-2.240529],[-79.798355,-2.240337],[-79.797662,-2.240284],[-79.797096,-2.240438],[-79.796883,-2.240398],[-79.796117,-2.240478],[-79.795308,-2.241146],[-79.795066,-2.241714],[-79.795141,-2.241577],[-79.795015,-2.24159],[-79.794671,-2.241421],[-79.79353,-2.241513],[-79.792515,-2.242213],[-79.79218,-2.242727],[-79.792552,-2.242475],[-79.792228,-2.242489],[-79.791574,-2.242756],[-79.79095,-2.242907],[-79.790605,-2.243226],[-79.791244,-2.243247],[-79.790828,-2.242865],[-79.790027,-2.242577],[-79.789764,-2.242606],[-79.788478,-2.242243],[-79.787619,-2.24225],[-79.78702,-2.24236],[-79.78642,-2.242433],[-79.785941,-2.242762],[-79.786605,-2.242713],[-79.786148,-2.242453],[-79.785263,-2.242421],[-79.785025,-2.242521],[-79.784682,-2.242477],[-79.784104,-2.242628],[-79.782681,-2.242226],[-79.781789,-2.242085],[-79.780686,-2.242315],[-79.779869,-2.242594],[-79.779668,-2.242788],[-79.779868,-2.24278],[-79.779286,-2.242524],[-79.778058,-2.241771],[-79.776513,-2.241089],[-79.775656,-2.240574],[-79.774469,-2.23991],[-79.77424,-2.239963],[-79.772989,-2.238819],[-79.771721,-2.238492],[-79.771144,-2.238785],[-79.771849,-2.238809],[-79.771824,-2.238708],[-79.770442,-2.237814],[-79.769377,-2.237326],[-79.76829,-2.23696],[-79.767962,-2.236786],[-79.767277,-2.236215],[-79.766551,-2.23584],[-79.766099,-2.235692],[-79.766255,-2.235679],[-79.765654,-2.234936],[-79.76514,-2.23475],[-79.764946,-2.23452],[-79.76393,-2.234297],[-79.762394,-2.234436],[-79.762982,-2.234687],[-79.763062,-2.234625],[-79.762642,-2.234135],[-79.761692,-2.233677],[-79.760667,-2.233984],[-79.76031,-2.23438],[-79.760248,-2.234423],[-79.759553,-2.234643],[-79.758716,-2.234637],[-79.75778,-2.234861],[-79.756987,-2.235044],[-79.756481,-2.235476],[-79.75622,-2.235562],[-79.755448,-2.235813],[-79.754406,-2.236453],[-79.754744,-2.236407],[-79.753779,-2.236225],[-79.752958,-2.23648],[-79.753022,-2.236473],[-79.752153,-2.236445],[-79.751427,-2.236494],[-79.751101,-2.236665],[-79.751565,-2.236747],[-79.751287,-2.236449],[-79.750828,-2.236393],[-79.750195,-2.2361],[-79.748887,-2.236143],[-79.747803,-2.236419],[-79.746152,-2.236271],[-79.745303,-2.236175],[-79.74441,-2.235951],[-79.743105,-2.235829],[-79.741947,-2.23578],[-79.741406,-2.235635],[-79.739748,-2.235057],[-79.738116,-2.234326],[-79.736699,-2.233647],[-79.736111,-2.233157],[-79.735499,-2.23301],[-79.734718,-2.232275],[-79.733758,-2.231766],[-79.73281,-2.231618],[-79.731947,-2.231812],[-79.730994,-2.231822],[-79.729757,-2.232315],[-79.72926,-2.232432],[-79.729211,-2.232576],[-79.727804,-2.232374],[-79.727053,-2.232044],[-79.725661,-2.2323],[-79.723289,-2.234048],[-79.722205,-2.23585],[-79.722135,-2.236322],[-79.722697,-2.235974],[-79.722389,-2.235815],[-79.7217,-2.235925],[-79.720982,-2.236087],[-79.720437,-2.23637],[-79.719758,-2.236797],[-79.71931,-2.237289],[-79.719571,-2.237173],[-79.719762,-2.237071],[-79.719275,-2.237046],[-79.719121,-2.237077],[-79.718551,-2.236913],[-79.717838,-2.237021],[-79.717702,-2.236869],[-79.716922,-2.236742],[-79.716225,-2.236833],[-79.715756,-2.236932],[-79.716258,-2.23928]]]}},{"type":"Feature","properties":{"water_body":"estero_salado","name":"Estero Santa Ana","source":"osm_way_150836225"},"geometry":{"type":"Polygon","coordinates":[[[-79.939131,-2.235977],[-79.935216,-2.237598],[-79.932857,-2.24074],[-79.930148,-2.245064],[-79.927632,-2.249734],[-79.927381,-2.251665],[-79.928573,-2.251805],[-79.928738,-2.2502],[-79.931186,-2.245668],[-79.933853,-2.24141],[-79.93594,-2.238554],[-79.939585,-2.237089],[-79.939131,-2.235977]]]}},{"type":"Feature","properties":{"water_body":"estero_salado","name":"Estero Santa Ana","source":"osm_way_150836233"},"geometry":{"type":"Polygon","coordinates":[[[-79.946774,-2.235285],[-79.944171,-2.235762],[-79.942126,-2.235926],[-79.939356,-2.235933],[-79.93936,-2.237133],[-79.94217,-2.237126],[-79.944335,-2.23695],[-79.94699,-2.236465],[-79.946774,-2.235285]]]}},{"type":"Feature","properties":{"water_body":"estero_salado","name":"Estero Santa Ana","source":"osm_way_150837599"},"geometry":{"type":"Polygon","coordinates":[[[-79.917615,-2.279087],[-79.915891,-2.281544],[-79.914924,-2.285975],[-79.914455,-2.292321],[-79.914092,-2.298703],[-79.914106,-2.305878],[-79.916495,-2.308948],[-79.921857,-2.310844],[-79.928304,-2.31043],[-79.935228,-2.309349],[-79.940878,-2.310105],[-79.945819,-2.315079],[-79.95033,-2.321489],[-79.953578,-2.326696],[-79.954596,-2.32606],[-79.951328,-2.320823],[-79.946741,-2.314309],[-79.941446,-2.309047],[-79.935204,-2.308149],[-79.92817,-2.309238],[-79.922003,-2.309652],[-79.917129,-2.307928],[-79.915278,-2.305622],[-79.915292,-2.298735],[-79.915653,-2.292399],[-79.916114,-2.286131],[-79.917009,-2.28198],[-79.918593,-2.279783],[-79.917615,-2.279087]]]}},{"type":"Feature","properties":{"water_body":"estero_salado","name":"Estero Cobina","source":"osm_way_150853880"},"geometry":{"type":"Polygon","coordinates":[[[-79.873766,-2.272509],[-79.874066,-2.271738],[-79.874113,-2.270399],[-79.874131,-2.269897],[-79.872931,-2.269855],[-79.872913,-2.270359],[-79.87288,-2.27155],[-79.872656,-2.272051],[-79.873766,-2.272509]]]}},{"type":"Feature","properties":{"water_body":"estero_salado","name":"Estero Cobina","source":"osm_way_150853882"},"geometry":{"type":"Polygon","coordinates":[[[-79.86912,-2.263784],[-79.866527,-2.261205],[-79.865681,-2.262055],[-79.868274,-2.264634],[-79.86912,-2.263784]]]}},{"type":"Feature","properties":{"water_body":"estero_salado","name":"Estero Santa Ana","source":"osm_way_150853887"},"geometry":{"type":"Polygon","coordinates":[[[-79.927381,-2.251665],[-79.927275,-2.252603],[-79.92739,-2.255718],[-79.928328,-2.25785],[-79.929767,-2.260211],[-79.930447,-2.262108],[-79.930946,-2.264856],[-79.930463,-2.26874],[-79.928604,-2.271502],[-79.925923,-2.274139],[-79.922246,-2.276023],[-79.917777,-2.278932],[-79.918431,-2.279938],[-79.922854,-2.277057],[-79.926621,-2.275115],[-79.929524,-2.272272],[-79.931595,-2.26914],[-79.932146,-2.264856],[-79.931611,-2.261814],[-79.930843,-2.259679],[-79.929386,-2.257284],[-79.928568,-2.255486],[-79.928475,-2.252603],[-79.928573,-2.251805],[-79.927381,-2.251665]]]}},{"type":"Feature","properties":{"water_body":"estero_salado","name":"BRAZO DE ESTERO","source":"osm_way_150903855"},"geometry":{"type":"Polygon","coordinates":[[[-79.947077,-2.188213],[-79.947256,-2.190291],[-79.947904,-2.190965],[-79.947932,-2.191387],[-79.947898,-2.19235],[-79.948271,-2.193047],[-79.948157,-2.193171],[-79.948067,-2.193507],[-79.94795,-2.193447],[-79.947912,-2.193516],[-79.946863,-2.193581],[-79.94584,-2.193586],[-79.945125,-2.194046],[-79.944883,-2.194853],[-79.944868,-2.195536],[-79.943964,-2.197976],[-79.9434,-2.200129],[-79.94456,-2.200433],[-79.945106,-2.198342],[-79.94602,-2.195874],[-79.946071,-2.195027],[-79.946161,-2.19465],[-79.946,-2.194776],[-79.946905,-2.194781],[-79.948074,-2.194704],[-79.948394,-2.194563],[-79.948975,-2.194293],[-79.949291,-2.193563],[-79.949445,-2.192801],[-79.949072,-2.192104],[-79.949132,-2.191343],[-79.94895,-2.190377],[-79.948406,-2.189947],[-79.948273,-2.188117],[-79.947077,-2.188213]]]}},{"type":"Feature","properties":{"water_body":"estero_salado","name":"Estero Cobina","source":"osm_way_288969087"},"geometry":{"type":"Polygon","coordinates":[[[-79.866521,-2.261199],[-79.866261,-2.260958],[-79.86482,-2.260037],[-79.856508,-2.257784],[-79.856194,-2.258942],[-79.864452,-2.261179],[-79.865575,-2.261942],[-79.865687,-2.262061],[-79.866521,-2.261199]]]}},{"type":"Feature","properties":{"water_body":"estero_salado","name":"Estero de la Zanja","source":"osm_way_338331672"},"geometry":{"type":"Polygon","coordinates":[[[-79.787388,-2.327084],[-79.788003,-2.327598],[-79.788574,-2.327874],[-79.789042,-2.327994],[-79.789387,-2.328102],[-79.789881,-2.328354],[-79.790485,-2.328453],[-79.791018,-2.328415],[-79.791355,-2.328201],[-79.790776,-2.328084],[-79.790872,-2.328271],[-79.791431,-2.328587],[-79.792597,-2.328571],[-79.79307,-2.328512],[-79.793392,-2.328447],[-79.794294,-2.328416],[-79.794648,-2.328358],[-79.795133,-2.328369],[-79.795543,-2.328327],[-79.795693,-2.328349],[-79.795833,-2.328389],[-79.79629,-2.328692],[-79.796759,-2.328818],[-79.797632,-2.328794],[-79.798214,-2.328687],[-79.798382,-2.328601],[-79.798749,-2.328627],[-79.798889,-2.328607],[-79.79898,-2.328675],[-79.799349,-2.328782],[-79.800213,-2.328819],[-79.800603,-2.328793],[-79.800844,-2.32889],[-79.801502,-2.328665],[-79.801581,-2.328491],[-79.801369,-2.328636],[-79.801059,-2.328582],[-79.801221,-2.328697],[-79.801406,-2.328739],[-79.801168,-2.32851],[-79.801159,-2.328581],[-79.801576,-2.329007],[-79.801902,-2.329073],[-79.80233,-2.329365],[-79.802866,-2.329672],[-79.803759,-2.329918],[-79.804113,-2.330058],[-79.804216,-2.330148],[-79.804311,-2.330254],[-79.804312,-2.330483],[-79.804471,-2.331042],[-79.804817,-2.331322],[-79.804958,-2.331496],[-79.805173,-2.331667],[-79.80562,-2.331833],[-79.806344,-2.331752],[-79.806829,-2.331365],[-79.806949,-2.331078],[-79.806576,-2.331263],[-79.806274,-2.331119],[-79.80645,-2.331351],[-79.806591,-2.331395],[-79.806568,-2.331472],[-79.806836,-2.331782],[-79.806893,-2.331958],[-79.807388,-2.332247],[-79.807667,-2.332254],[-79.807944,-2.332293],[-79.808331,-2.332231],[-79.808667,-2.332311],[-79.808674,-2.332368],[-79.809137,-2.332535],[-79.809457,-2.332474],[-79.809532,-2.33247],[-79.809917,-2.332477],[-79.810149,-2.33253],[-79.81101,-2.333001],[-79.811475,-2.333242],[-79.812064,-2.333327],[-79.812604,-2.333504],[-79.812709,-2.333705],[-79.812968,-2.333839],[-79.81287,-2.333736],[-79.812846,-2.333479],[-79.812788,-2.333548],[-79.812955,-2.334211],[-79.81352,-2.334427],[-79.813549,-2.334374],[-79.813159,-2.334032],[-79.813149,-2.334171],[-79.813447,-2.334643],[-79.813517,-2.334628],[-79.813542,-2.334695],[-79.813528,-2.334534],[-79.813456,-2.33468],[-79.813735,-2.335313],[-79.814224,-2.335465],[-79.814192,-2.335409],[-79.814424,-2.33556],[-79.814818,-2.335674],[-79.814747,-2.335706],[-79.814959,-2.335956],[-79.815177,-2.336115],[-79.815561,-2.336375],[-79.816001,-2.336685],[-79.816587,-2.336694],[-79.816474,-2.336607],[-79.816816,-2.336839],[-79.817156,-2.336924],[-79.817034,-2.336739],[-79.817043,-2.337095],[-79.817326,-2.337759],[-79.817851,-2.338004],[-79.818247,-2.338264],[-79.818853,-2.338296],[-79.819377,-2.338242],[-79.819251,-2.338207],[-79.819391,-2.338411],[-79.820104,-2.338485],[-79.820475,-2.33816],[-79.820579,-2.337971],[-79.820368,-2.338063],[-79.820457,-2.33813],[-79.821206,-2.337983],[-79.821427,-2.337566],[-79.820937,-2.337765],[-79.820734,-2.337628],[-79.820747,-2.337743],[-79.820933,-2.338066],[-79.821284,-2.338491],[-79.82197,-2.338716],[-79.822594,-2.338607],[-79.822693,-2.338527],[-79.822553,-2.338513],[-79.822377,-2.338275],[-79.822365,-2.338376],[-79.822261,-2.338641],[-79.822323,-2.339215],[-79.822791,-2.339645],[-79.823263,-2.339734],[-79.823748,-2.339692],[-79.824078,-2.339479],[-79.823676,-2.339488],[-79.823342,-2.338799],[-79.823064,-2.339212],[-79.823194,-2.339979],[-79.823864,-2.340297],[-79.824316,-2.340161],[-79.82458,-2.340026],[-79.824028,-2.33896],[-79.823836,-2.339061],[-79.823804,-2.339099],[-79.824172,-2.339283],[-79.824196,-2.33961],[-79.82444,-2.339283],[-79.824022,-2.338338],[-79.823378,-2.338505],[-79.823362,-2.338556],[-79.823347,-2.338538],[-79.823219,-2.338525],[-79.823419,-2.338725],[-79.823443,-2.338845],[-79.823551,-2.338558],[-79.823525,-2.337927],[-79.823061,-2.337425],[-79.822499,-2.337343],[-79.822242,-2.337459],[-79.822032,-2.337518],[-79.821952,-2.337493],[-79.821939,-2.337412],[-79.821839,-2.337243],[-79.82173,-2.336958],[-79.821233,-2.336603],[-79.820449,-2.33687],[-79.820534,-2.336989],[-79.820497,-2.33693],[-79.820232,-2.336871],[-79.819689,-2.337167],[-79.819483,-2.337484],[-79.81968,-2.337363],[-79.820069,-2.337421],[-79.820043,-2.337305],[-79.819463,-2.337046],[-79.818793,-2.337098],[-79.818615,-2.337122],[-79.818413,-2.336944],[-79.818168,-2.336903],[-79.818221,-2.336869],[-79.81815,-2.336299],[-79.817628,-2.33582],[-79.817312,-2.335747],[-79.816792,-2.335449],[-79.816257,-2.33554],[-79.816495,-2.335591],[-79.816255,-2.335395],[-79.815855,-2.335125],[-79.815763,-2.335066],[-79.815753,-2.335054],[-79.815458,-2.33466],[-79.8149,-2.334458],[-79.814566,-2.334269],[-79.814224,-2.334265],[-79.814471,-2.334365],[-79.814652,-2.334786],[-79.814724,-2.334622],[-79.814612,-2.334151],[-79.814343,-2.333758],[-79.814133,-2.333659],[-79.814327,-2.333947],[-79.814315,-2.333712],[-79.813775,-2.333196],[-79.813486,-2.333227],[-79.813817,-2.333375],[-79.813954,-2.333834],[-79.814024,-2.333707],[-79.813954,-2.333222],[-79.813676,-2.332871],[-79.813503,-2.332805],[-79.813198,-2.332462],[-79.812356,-2.332163],[-79.811815,-2.332092],[-79.811586,-2.331949],[-79.810647,-2.331438],[-79.810073,-2.331287],[-79.809532,-2.33127],[-79.809265,-2.33129],[-79.809123,-2.331335],[-79.80939,-2.331404],[-79.809095,-2.331189],[-79.808403,-2.331033],[-79.8079,-2.331093],[-79.807769,-2.331058],[-79.807596,-2.331065],[-79.807849,-2.331232],[-79.807834,-2.331116],[-79.80757,-2.330812],[-79.807471,-2.330579],[-79.807234,-2.330443],[-79.807168,-2.330319],[-79.806694,-2.330069],[-79.806025,-2.330314],[-79.805811,-2.330729],[-79.806034,-2.330592],[-79.805632,-2.330633],[-79.805831,-2.330663],[-79.805812,-2.330654],[-79.805605,-2.330418],[-79.805483,-2.330396],[-79.805498,-2.330299],[-79.805431,-2.329824],[-79.805096,-2.329334],[-79.804693,-2.329008],[-79.804123,-2.328774],[-79.80329,-2.32855],[-79.80297,-2.328351],[-79.80242,-2.327991],[-79.801982,-2.327877],[-79.802285,-2.328167],[-79.802246,-2.327982],[-79.80185,-2.327625],[-79.801717,-2.327605],[-79.801599,-2.32751],[-79.801153,-2.327456],[-79.800707,-2.327669],[-79.800608,-2.327865],[-79.801052,-2.327708],[-79.800733,-2.327601],[-79.800225,-2.327619],[-79.799465,-2.327588],[-79.799442,-2.327567],[-79.799135,-2.327433],[-79.798775,-2.327427],[-79.798248,-2.327409],[-79.797912,-2.327525],[-79.797528,-2.327598],[-79.796797,-2.327618],[-79.79686,-2.327636],[-79.796399,-2.327331],[-79.795963,-2.327179],[-79.795535,-2.327127],[-79.795091,-2.327169],[-79.794582,-2.32716],[-79.79421,-2.327218],[-79.793296,-2.327251],[-79.792882,-2.327326],[-79.792543,-2.327373],[-79.791509,-2.327389],[-79.791802,-2.327513],[-79.791652,-2.327264],[-79.790869,-2.327103],[-79.79062,-2.327283],[-79.790587,-2.327257],[-79.790261,-2.327216],[-79.789857,-2.326998],[-79.78937,-2.32684],[-79.788984,-2.326746],[-79.788679,-2.326606],[-79.78816,-2.326166],[-79.787388,-2.327084]]]}},{"type":"Feature","properties":{"water_body":"estero_salado","name":"Estero Cobina","source":"osm_way_749460484"},"geometry":{"type":"Polygon","coordinates":[[[-79.874112,-2.269724],[-79.873919,-2.269083],[-79.873147,-2.268169],[-79.872046,-2.267752],[-79.871501,-2.267585],[-79.871325,-2.267117],[-79.870712,-2.265642],[-79.869997,-2.264842],[-79.86916,-2.263827],[-79.868234,-2.264591],[-79.869089,-2.265626],[-79.869674,-2.266244],[-79.870225,-2.267595],[-79.870697,-2.268475],[-79.871628,-2.268878],[-79.872469,-2.269159],[-79.872889,-2.269697],[-79.87295,-2.270028],[-79.874112,-2.269724]]]}},{"type":"Feature","properties":{"water_body":"estero_salado","name":"Estero Salado","source":"osm_way_1009744109"},"geometry":{"type":"Polygon","coordinates":[[[-79.901723,-2.158011],[-79.901694,-2.158779],[-79.901658,-2.160741],[-79.901461,-2.161572],[-79.901306,-2.161797],[-79.901113,-2.162388],[-79.901085,-2.162715],[-79.900712,-2.163514],[-79.900407,-2.164092],[-79.900088,-2.164939],[-79.899969,-2.165652],[-79.900008,-2.166372],[-79.900191,-2.168017],[-79.900493,-2.169166],[-79.900816,-2.171588],[-79.901365,-2.174006],[-79.901464,-2.175008],[-79.902181,-2.177232],[-79.902679,-2.178626],[-79.904939,-2.177818],[-79.904455,-2.176466],[-79.90379,-2.17442],[-79.903723,-2.173562],[-79.903178,-2.171162],[-79.902857,-2.168752],[-79.902555,-2.167603],[-79.902396,-2.16614],[-79.902367,-2.165738],[-79.902386,-2.165631],[-79.902601,-2.165068],[-79.90287,-2.164564],[-79.903347,-2.163517],[-79.903455,-2.162912],[-79.903496,-2.162779],[-79.903751,-2.162292],[-79.904048,-2.160961],[-79.904094,-2.158839],[-79.904121,-2.158101],[-79.901723,-2.158011]]]}},{"type":"Feature","properties":{"water_body":"estero_salado","name":"Estero Salado","source":"osm_way_1009744110"},"geometry":{"type":"Polygon","coordinates":[[[-79.915555,-2.166979],[-79.915574,-2.166965],[-79.915526,-2.166545],[-79.916223,-2.165656],[-79.915981,-2.165721],[-79.915636,-2.165755],[-79.915159,-2.165784],[-79.914509,-2.165988],[-79.913935,-2.1665],[-79.91364,-2.167408],[-79.913751,-2.168787],[-79.91384,-2.169962],[-79.913831,-2.170005],[-79.914017,-2.169686],[-79.914618,-2.169373],[-79.914922,-2.1694],[-79.914573,-2.169227],[-79.913952,-2.169162],[-79.913459,-2.169183],[-79.912749,-2.169469],[-79.912253,-2.169937],[-79.911779,-2.17056],[-79.911574,-2.171334],[-79.911573,-2.171921],[-79.911534,-2.172378],[-79.911675,-2.172053],[-79.911461,-2.172271],[-79.911262,-2.172364],[-79.91088,-2.172565],[-79.91031,-2.172888],[-79.909728,-2.173483],[-79.909474,-2.174225],[-79.909442,-2.174653],[-79.909318,-2.175685],[-79.909294,-2.175724],[-79.909331,-2.175642],[-79.909245,-2.175773],[-79.909486,-2.175616],[-79.908158,-2.176081],[-79.905788,-2.176733],[-79.903854,-2.176946],[-79.903351,-2.177113],[-79.90307,-2.177236],[-79.902065,-2.177863],[-79.901162,-2.179187],[-79.900537,-2.180487],[-79.899204,-2.182369],[-79.897933,-2.183897],[-79.897235,-2.185142],[-79.897222,-2.186223],[-79.897636,-2.187351],[-79.898532,-2.1881],[-79.899823,-2.18895],[-79.899937,-2.189129],[-79.900561,-2.190136],[-79.90185,-2.190784],[-79.903851,-2.190729],[-79.9061,-2.190264],[-79.906742,-2.190182],[-79.907247,-2.190203],[-79.908737,-2.190517],[-79.910849,-2.190873],[-79.913844,-2.191154],[-79.915675,-2.191352],[-79.918845,-2.19143],[-79.920823,-2.191394],[-79.923315,-2.19088],[-79.925054,-2.190682],[-79.928141,-2.190845],[-79.929634,-2.191273],[-79.930466,-2.191934],[-79.932675,-2.194514],[-79.9349,-2.19621],[-79.935694,-2.197041],[-79.936414,-2.19826],[-79.936991,-2.19946],[-79.937983,-2.200467],[-79.939436,-2.201124],[-79.94154,-2.201526],[-79.944005,-2.201481],[-79.945073,-2.201332],[-79.946064,-2.202399],[-79.946173,-2.203112],[-79.94613,-2.205268],[-79.944951,-2.207782],[-79.944633,-2.209685],[-79.945089,-2.213449],[-79.946576,-2.216068],[-79.948207,-2.219352],[-79.948648,-2.220914],[-79.948462,-2.222254],[-79.946885,-2.226399],[-79.9461,-2.230733],[-79.9459,-2.235793],[-79.948298,-2.235887],[-79.948488,-2.230979],[-79.949195,-2.227047],[-79.950758,-2.222956],[-79.95104,-2.220724],[-79.950423,-2.218432],[-79.948696,-2.214942],[-79.947383,-2.212743],[-79.947031,-2.209609],[-79.947211,-2.20859],[-79.948458,-2.205852],[-79.948569,-2.202974],[-79.948088,-2.201109],[-79.946105,-2.199164],[-79.943955,-2.199081],[-79.941716,-2.199132],[-79.940102,-2.198818],[-79.939305,-2.198465],[-79.938993,-2.198136],[-79.938526,-2.19712],[-79.937616,-2.195603],[-79.936454,-2.19438],[-79.934341,-2.192786],[-79.932188,-2.190262],[-79.930668,-2.189107],[-79.928471,-2.188467],[-79.925036,-2.188282],[-79.922925,-2.188512],[-79.920525,-2.189012],[-79.918869,-2.18903],[-79.915807,-2.188956],[-79.914082,-2.188766],[-79.911145,-2.188491],[-79.909177,-2.188157],[-79.907617,-2.187831],[-79.906638,-2.187784],[-79.905662,-2.187904],[-79.903545,-2.188349],[-79.902074,-2.188394],[-79.902335,-2.18852],[-79.901931,-2.187793],[-79.901303,-2.187062],[-79.899898,-2.186126],[-79.899596,-2.185967],[-79.899556,-2.185663],[-79.899475,-2.186002],[-79.899873,-2.185311],[-79.901114,-2.183823],[-79.902579,-2.181747],[-79.90325,-2.180369],[-79.903793,-2.179529],[-79.904208,-2.179348],[-79.904267,-2.179331],[-79.90419,-2.179322],[-79.906262,-2.179085],[-79.90885,-2.178379],[-79.910352,-2.177854],[-79.910961,-2.177451],[-79.911295,-2.177022],[-79.911506,-2.176654],[-79.911686,-2.176079],[-79.911828,-2.174905],[-79.911836,-2.174649],[-79.911786,-2.174717],[-79.911674,-2.174862],[-79.912024,-2.174675],[-79.912398,-2.174478],[-79.912925,-2.174173],[-79.913471,-2.173645],[-79.913874,-2.172914],[-79.913969,-2.172051],[-79.913968,-2.171494],[-79.913875,-2.171728],[-79.914045,-2.171533],[-79.914161,-2.171409],[-79.913851,-2.171551],[-79.913888,-2.171562],[-79.913931,-2.171539],[-79.914064,-2.171642],[-79.914848,-2.171761],[-79.915817,-2.171274],[-79.916177,-2.170515],[-79.916238,-2.169874],[-79.916143,-2.168599],[-79.91604,-2.167352],[-79.915889,-2.167892],[-79.915651,-2.168098],[-79.915493,-2.16816],[-79.915832,-2.168147],[-79.916427,-2.168079],[-79.917075,-2.1679],[-79.917904,-2.166867],[-79.917796,-2.166059],[-79.917559,-2.165657],[-79.915555,-2.166979]]]}},{"type":"Feature","properties":{"water_body":"estero_salado","name":"BRAZO DE ESTERO","source":"osm_way_1180297589"},"geometry":{"type":"Polygon","coordinates":[[[-79.946908,-2.186753],[-79.94694,-2.18684],[-79.948066,-2.186426],[-79.948034,-2.186339],[-79.946908,-2.186753]]]}},{"type":"Feature","properties":{"water_body":"estero_salado","name":"BRAZO DE ESTERO","source":"osm_way_1180297591"},"geometry":{"type":"Polygon","coordinates":[[[-79.94694,-2.186841],[-79.947212,-2.187526],[-79.947085,-2.188054],[-79.948265,-2.188276],[-79.948404,-2.187392],[-79.948066,-2.186425],[-79.94694,-2.186841]]]}}]}